{
"type": "FeatureCollection",
"name": "locais-utm",
"features": [
{ "type": "Feature", "properties": { "codigo": "A01", "nome": "ESF Alvorada", "grupo": "UBS / ESF", "endereco": "Rua do Engenheiro, 98 - Bairro Alvorada", "bairro": "Alvorada", "observacao": "", "rural": false, "x": 296805.23, "y": 8192945.58, "qualidade_geocodificacao": "alta" }, "geometry": { "type": "Point", "coordinates": [ -46.902082, -16.336028 ] } },
{ "type": "Feature", "properties": { "codigo": "A02", "nome": "ESF Bela Vista", "grupo": "UBS / ESF", "endereco": "Rua Itapuã, 53 - Bairro Bela Vista", "bairro": "Bela Vista", "observacao": "", "rural": false, "x": 298648.25, "y": 8188301.42, "qualidade_geocodificacao": "alta" }, "geometry": { "type": "Point", "coordinates": [ -46.8852393, -16.3781437 ] } },
{ "type": "Feature", "properties": { "codigo": "A03", "nome": "ESF Cachoeira", "grupo": "UBS / ESF", "endereco": "Rua Santa Luzia, 263 - Bairro Cachoeira", "bairro": "Cachoeira", "observacao": "", "rural": false, "x": 297530.53, "y": 8190939.21, "qualidade_geocodificacao": "alta" }, "geometry": { "type": "Point", "coordinates": [ -46.8954701, -16.3542169 ] } },
{ "type": "Feature", "properties": { "codigo": "A04", "nome": "ESF CAIC / Novo Horizonte", "grupo": "UBS / ESF", "endereco": "Av. Salustiano Caldeira, s/n - Bairro Canaã", "bairro": "Canaã", "observacao": "O diretório municipal de 20/08/2026 lista o ESF Novo Horizonte na Rua José de Melo, 186. Agrupamento segue o endereço do PDF e requer [VALIDAR COM A SMS].", "rural": false, "x": 296248.52, "y": 8188207.25, "qualidade_geocodificacao": "média" }, "geometry": { "type": "Point", "coordinates": [ -46.9077071, -16.3787921 ] } },
{ "type": "Feature", "properties": { "codigo": "A05", "nome": "ESF Canabrava", "grupo": "UBS / ESF", "endereco": "Rua João Mendes Cornélio, 141", "bairro": "", "observacao": "2 equipes no mesmo endereço.", "rural": false, "x": 298150.3, "y": 8190580.65, "qualidade_geocodificacao": "alta" }, "geometry": { "type": "Point", "coordinates": [ -46.8897014, -16.3575087 ] } },
{ "type": "Feature", "properties": { "codigo": "A06", "nome": "ESF Centro", "grupo": "UBS / ESF", "endereco": "Rua Belo Horizonte, 314 - Cruzeiro", "bairro": "Cruzeiro", "observacao": "O diretório municipal de 20/08/2026 lista Rua Vila Rica, 165. Endereço do mapa segue o PDF e requer [VALIDAR COM A SMS].", "rural": false, "x": 297197.76, "y": 8189601.64, "qualidade_geocodificacao": "alta" }, "geometry": { "type": "Point", "coordinates": [ -46.898701, -16.366274 ] } },
{ "type": "Feature", "properties": { "codigo": "A07", "nome": "ESF Divinéia 01", "grupo": "UBS / ESF", "endereco": "Rua Ana Paula, 34 - Bairro Divinéia", "bairro": "Divinéia", "observacao": "Número não retornado; ponto aproximado no logradouro.", "rural": false, "x": 297964.39, "y": 8189406.28, "qualidade_geocodificacao": "média" }, "geometry": { "type": "Point", "coordinates": [ -46.8915434, -16.3681037 ] } },
{ "type": "Feature", "properties": { "codigo": "A08", "nome": "ESF Divinéia 02", "grupo": "UBS / ESF", "endereco": "Rua Santos Dumont, 431 - Bairro Divinéia", "bairro": "Divinéia", "observacao": "", "rural": false, "x": 297849.12, "y": 8188937.77, "qualidade_geocodificacao": "alta" }, "geometry": { "type": "Point", "coordinates": [ -46.8926631, -16.3723271 ] } },
{ "type": "Feature", "properties": { "codigo": "A09", "nome": "ESF Jacilândia", "grupo": "UBS / ESF", "endereco": "Rua Arminda Rangel, 96 - Bairro Jacilândia", "bairro": "Jacilândia", "observacao": "", "rural": false, "x": 296132.76, "y": 8190875.09, "qualidade_geocodificacao": "alta" }, "geometry": { "type": "Point", "coordinates": [ -46.908556, -16.3546782 ] } },
{ "type": "Feature", "properties": { "codigo": "A10", "nome": "ESF Mamoeiro", "grupo": "UBS / ESF", "endereco": "Rua Dona Nina, 1040 - Bairro Mamoeiro", "bairro": "Mamoeiro", "observacao": "", "rural": false, "x": 296579.95, "y": 8197087.19, "qualidade_geocodificacao": "alta" }, "geometry": { "type": "Point", "coordinates": [ -46.903828, -16.298589 ] } },
{ "type": "Feature", "properties": { "codigo": "A11", "nome": "ESF Novo Jardim", "grupo": "UBS / ESF", "endereco": "Rua José Durães Versiane, 107 - Bairro Novo Jardim", "bairro": "Novo Jardim", "observacao": "", "rural": false, "x": 298614.68, "y": 8189643.05, "qualidade_geocodificacao": "alta" }, "geometry": { "type": "Point", "coordinates": [ -46.885437, -16.366019 ] } },
{ "type": "Feature", "properties": { "codigo": "A12", "nome": "ESF Politécnica", "grupo": "UBS / ESF", "endereco": "Rua Acácio Afonso dos Reis, 240 - Bairro Politécnica", "bairro": "Politécnica", "observacao": "2 equipes no mesmo endereço.", "rural": false, "x": 298494.41, "y": 8191285.29, "qualidade_geocodificacao": "alta" }, "geometry": { "type": "Point", "coordinates": [ -46.88642, -16.351171 ] } },
{ "type": "Feature", "properties": { "codigo": "A13", "nome": "ESF Primavera", "grupo": "UBS / ESF", "endereco": "Rua Geraldo Furtado dos Santos, 380 - Bairro Primavera", "bairro": "Primavera", "observacao": "", "rural": false, "x": 298512.18, "y": 8190371.32, "qualidade_geocodificacao": "alta" }, "geometry": { "type": "Point", "coordinates": [ -46.886333, -16.3594304 ] } },
{ "type": "Feature", "properties": { "codigo": "A14", "nome": "ESF Sagrada Família", "grupo": "UBS / ESF", "endereco": "Rua Castanheira, 256 - Bairro Cidade Nova", "bairro": "Cidade Nova", "observacao": "", "rural": false, "x": 296693.62, "y": 8187675.08, "qualidade_geocodificacao": "alta" }, "geometry": { "type": "Point", "coordinates": [ -46.903588, -16.383638 ] } },
{ "type": "Feature", "properties": { "codigo": "A15", "nome": "ESF Santa Luzia", "grupo": "UBS / ESF", "endereco": "Rua Miguel Alves Ribeiro, 43 - Sagarana", "bairro": "Sagarana", "observacao": "Aproximação por logradouro e CEP; ponto predial não localizado de forma confiável. [VALIDAR COM A SMS].", "rural": false, "x": 298245.55, "y": 8190123.14, "qualidade_geocodificacao": "baixa" }, "geometry": { "type": "Point", "coordinates": [ -46.8888498, -16.3616504 ] } },
{ "type": "Feature", "properties": { "codigo": "A16", "nome": "UBS Rural", "grupo": "UBS / ESF", "endereco": "Av. Princesa Isabel, 474", "bairro": "", "observacao": "O diretório municipal de 20/08/2026 lista Rua dos Lírios, 348. Endereço do mapa segue o PDF e requer [VALIDAR COM A SMS]. 2 equipes no mesmo endereço.", "rural": false, "x": 297752.0, "y": 8189407.81, "qualidade_geocodificacao": "alta" }, "geometry": { "type": "Point", "coordinates": [ -46.893531, -16.368072 ] } },
{ "type": "Feature", "properties": { "codigo": "A17", "nome": "ESF Garapuava", "grupo": "UBS / ESF", "endereco": "Avenida Brasília, 400 - Garapuava", "bairro": "Garapuava", "observacao": "Localidade fora da área urbana principal; exibida no quadro municipal.", "rural": true, "x": 333494.54, "y": 8220709.87, "qualidade_geocodificacao": "alta" }, "geometry": { "type": "Point", "coordinates": [ -46.556768, -16.087943 ] } },
{ "type": "Feature", "properties": { "codigo": "A18", "nome": "ESF Ruralminas", "grupo": "UBS / ESF", "endereco": "R.Q.A. - Ruralminas, Unaí", "bairro": "Ruralminas", "observacao": "Ponto aproximado no centro da localidade; exibida no quadro municipal. [VALIDAR COM A SMS].", "rural": true, "x": 331564.68, "y": 8162761.71, "qualidade_geocodificacao": "baixa" }, "geometry": { "type": "Point", "coordinates": [ -46.5790096, -16.6114694 ] } },
{ "type": "Feature", "properties": { "codigo": "S01", "nome": "Secretaria Municipal de Saúde", "grupo": "Saúde especializada e gestão", "endereco": "Rua Calixto Martins de Melo, 249 - Centro", "bairro": "Centro", "observacao": "", "rural": false, "x": 297150.21, "y": 8190185.36, "qualidade_geocodificacao": "alta" }, "geometry": { "type": "Point", "coordinates": [ -46.899095, -16.360996 ] } },
{ "type": "Feature", "properties": { "codigo": "S02", "nome": "Pronto Atendimento Municipal", "grupo": "Urgência e emergência", "endereco": "Av. Presidente Castelo Branco, 136 - Centro", "bairro": "Centro", "observacao": "Mantido separado do Hospital Municipal conforme fonte oficial.", "rural": false, "x": 296937.54, "y": 8189331.03, "qualidade_geocodificacao": "alta" }, "geometry": { "type": "Point", "coordinates": [ -46.90116, -16.368697 ] } },
{ "type": "Feature", "properties": { "codigo": "S03", "nome": "Hospital Municipal", "grupo": "Urgência e emergência", "endereco": "Rua Virgílio Justiniano Ribeiro, 1.585 - Barroca", "bairro": "Barroca", "observacao": "Mantido separado do Pronto Atendimento conforme fonte oficial.", "rural": false, "x": 296886.05, "y": 8189417.64, "qualidade_geocodificacao": "alta" }, "geometry": { "type": "Point", "coordinates": [ -46.9016343, -16.3679101 ] } },
{ "type": "Feature", "properties": { "codigo": "S04", "nome": "SAME", "grupo": "Saúde especializada e gestão", "endereco": "Rua Sabará, 153 - Bairro Cruzeiro", "bairro": "Cruzeiro", "observacao": "", "rural": false, "x": 297346.67, "y": 8189641.33, "qualidade_geocodificacao": "alta" }, "geometry": { "type": "Point", "coordinates": [ -46.897304, -16.365928 ] } },
{ "type": "Feature", "properties": { "codigo": "S05", "nome": "Farmácia Básica Municipal", "grupo": "Saúde especializada e gestão", "endereco": "Rua Paracatu, 274 - Centro", "bairro": "Centro", "observacao": "", "rural": false, "x": 297011.81, "y": 8189810.19, "qualidade_geocodificacao": "alta" }, "geometry": { "type": "Point", "coordinates": [ -46.900423, -16.364374 ] } },
{ "type": "Feature", "properties": { "codigo": "S06", "nome": "CAPS I", "grupo": "Saúde especializada e gestão", "endereco": "Rua/Av. Jaçanã, 328 - Divinéia / Capim Branco III", "bairro": "Divinéia / Capim Branco III", "observacao": "Página específica informa Rua Jaçanã; diretório recente informa Avenida Jaçanã. [VALIDAR COM A SMS].", "rural": false, "x": 297935.09, "y": 8188104.94, "qualidade_geocodificacao": "alta" }, "geometry": { "type": "Point", "coordinates": [ -46.8919311, -16.379859 ] } },
{ "type": "Feature", "properties": { "codigo": "S07", "nome": "CAPS AD", "grupo": "Saúde especializada e gestão", "endereco": "Avenida Frei Anselmo, 630 - Divinéia", "bairro": "Divinéia", "observacao": "", "rural": false, "x": 298019.89, "y": 8188878.05, "qualidade_geocodificacao": "alta" }, "geometry": { "type": "Point", "coordinates": [ -46.89107, -16.372881 ] } },
{ "type": "Feature", "properties": { "codigo": "S08", "nome": "SAMU", "grupo": "Urgência e emergência", "endereco": "Interseção da Rua Antônio Paulino com Av. Alcino José da Rocha - Canaã", "bairro": "Canaã", "observacao": "Posicionado na interseção publicada, sem inventar número predial.", "rural": false, "x": 296306.98, "y": 8188223.62, "qualidade_geocodificacao": "alta" }, "geometry": { "type": "Point", "coordinates": [ -46.9071585, -16.3786492 ] } },
{ "type": "Feature", "properties": { "codigo": "S09", "nome": "Corpo de Bombeiros", "grupo": "Segurança pública", "endereco": "Rua Santa Clara, s/n - Cruzeiro", "bairro": "Cruzeiro", "observacao": "Ponto aproximado no logradouro oficial; validação do acesso recomendada.", "rural": false, "x": 297398.03, "y": 8189868.33, "qualidade_geocodificacao": "média" }, "geometry": { "type": "Point", "coordinates": [ -46.8968035, -16.3638813 ] } },
{ "type": "Feature", "properties": { "codigo": "S10", "nome": "Polícia Militar", "grupo": "Segurança pública", "endereco": "Rua Virgílio Justiniano Ribeiro, 488 - Centro", "bairro": "Centro", "observacao": "", "rural": false, "x": 296401.35, "y": 8190323.46, "qualidade_geocodificacao": "alta" }, "geometry": { "type": "Point", "coordinates": [ -46.906091, -16.359685 ] } },
{ "type": "Feature", "properties": { "codigo": "S11", "nome": "CRAS I - Assentamento", "grupo": "Proteção social", "endereco": "Rua Presidente Bernardes, 470 - Bairro Cachoeira", "bairro": "Cachoeira", "observacao": "", "rural": false, "x": 297374.61, "y": 8190643.79, "qualidade_geocodificacao": "alta" }, "geometry": { "type": "Point", "coordinates": [ -46.896955, -16.356873 ] } },
{ "type": "Feature", "properties": { "codigo": "S12", "nome": "CRAS II - Canaã", "grupo": "Proteção social", "endereco": "Av. Frei Estevão, 500 - Bairro Iuna", "bairro": "Iuna", "observacao": "", "rural": false, "x": 296109.29, "y": 8187959.13, "qualidade_geocodificacao": "alta" }, "geometry": { "type": "Point", "coordinates": [ -46.909032, -16.3810221 ] } },
{ "type": "Feature", "properties": { "codigo": "S13", "nome": "CRAS III - Mamoeiro", "grupo": "Proteção social", "endereco": "Rua Elson Gabriel de Paulo, 307 - Bairro Mamoeiro", "bairro": "Mamoeiro", "observacao": "", "rural": false, "x": 296590.47, "y": 8197002.4, "qualidade_geocodificacao": "alta" }, "geometry": { "type": "Point", "coordinates": [ -46.903737, -16.299356 ] } },
{ "type": "Feature", "properties": { "codigo": "S14", "nome": "CREAS", "grupo": "Proteção social", "endereco": "Av. Lisboa, 27 - Vila São Sebastião", "bairro": "Vila São Sebastião", "observacao": "Número não retornado; ponto aproximado no logradouro. [VALIDAR COM A SEMDESC].", "rural": false, "x": 297741.31, "y": 8188892.64, "qualidade_geocodificacao": "média" }, "geometry": { "type": "Point", "coordinates": [ -46.893676, -16.3727257 ] } }
]
}
