{
"type": "FeatureCollection",
"name": "municipios-utm",
"features": [
{ "type": "Feature", "properties": { "codigo": "3109402", "nome": "Buritizeiro", "uf": "MG", "label_x": null, "label_y": null }, "geometry": { "type": "Polygon", "coordinates": [ [ [ -44.789518, -17.104824 ], [ -45.104707, -16.565413 ], [ -45.561983, -17.059395 ], [ -44.789518, -17.104824 ] ] ] } },
{ "type": "Feature", "properties": { "codigo": "3157609", "nome": "Santa Fé de Minas", "uf": "MG", "label_x": 403747.88, "label_y": 8155729.1 }, "geometry": { "type": "Polygon", "coordinates": [ [ [ -45.117302, -16.512806 ], [ -46.01599, -16.636478 ], [ -45.721793, -16.898011 ], [ -45.117302, -16.512806 ] ] ] } },
{ "type": "Feature", "properties": { "codigo": "3164209", "nome": "São Romão", "uf": "MG", "label_x": null, "label_y": null }, "geometry": { "type": "Polygon", "coordinates": [ [ [ -45.633993, -16.172586 ], [ -45.830617, -16.506357 ], [ -45.307907, -16.563778 ], [ -45.633993, -16.172586 ] ] ] } },
{ "type": "Feature", "properties": { "codigo": "3170529", "nome": "Urucuia", "uf": "MG", "label_x": 407154.5, "label_y": 8220643.65 }, "geometry": { "type": "Polygon", "coordinates": [ [ [ -45.586062, -15.718404 ], [ -45.917719, -16.112767 ], [ -45.349502, -16.32305 ], [ -45.586062, -15.718404 ] ] ] } },
{ "type": "Feature", "properties": { "codigo": "3116159", "nome": "Chapada Gaúcha", "uf": "MG", "label_x": null, "label_y": null }, "geometry": { "type": "Polygon", "coordinates": [ [ [ -45.6555186, -15.0257996 ], [ -45.583335, -15.724052 ], [ -45.30865, -15.900305 ], [ -45.6555186, -15.0257996 ] ] ] } },
{ "type": "Feature", "properties": { "codigo": "3135209", "nome": "Januária", "uf": "MG", "label_x": null, "label_y": null }, "geometry": { "type": "Polygon", "coordinates": [ [ [ -45.5934837, -14.9755013 ], [ -45.434599, -15.317437 ], [ -45.181504, -15.557065 ], [ -45.5934837, -14.9755013 ] ] ] } },
{ "type": "Feature", "properties": { "codigo": "3136306", "nome": "João Pinheiro", "uf": "MG", "label_x": 387246.87, "label_y": 8115132.77 }, "geometry": { "type": "Polygon", "coordinates": [ [ [ -45.436154, -17.116634 ], [ -46.21992, -16.967803 ], [ -46.260048, -18.043716 ], [ -45.436154, -17.116634 ] ] ] } },
{ "type": "Feature", "properties": { "codigo": "3171006", "nome": "Vazante", "uf": "MG", "label_x": null, "label_y": null }, "geometry": { "type": "Polygon", "coordinates": [ [ [ -46.574435, -17.747394 ], [ -46.586973, -17.505604 ], [ -47.183214, -18.000331 ], [ -46.574435, -17.747394 ] ] ] } },
{ "type": "Feature", "properties": { "codigo": "3128600", "nome": "Guarda-Mor", "uf": "MG", "label_x": null, "label_y": null }, "geometry": { "type": "Polygon", "coordinates": [ [ [ -47.285203, -17.476216 ], [ -47.2994996, -18.0291981 ], [ -46.981911, -17.906826 ], [ -47.285203, -17.476216 ] ] ] } },
{ "type": "Feature", "properties": { "codigo": "3137536", "nome": "Lagoa Grande", "uf": "MG", "label_x": null, "label_y": null }, "geometry": { "type": "Polygon", "coordinates": [ [ [ -46.341073, -17.832403 ], [ -46.534506, -17.488224 ], [ -46.566655, -17.493961 ], [ -46.584771, -17.512739 ], [ -46.618003, -17.655599 ], [ -46.567861, -17.766659 ], [ -46.341073, -17.832403 ] ] ] } },
{ "type": "Feature", "properties": { "codigo": "3147006", "nome": "Paracatu", "uf": "MG", "label_x": 319780.48, "label_y": 8127988.8 }, "geometry": { "type": "Polygon", "coordinates": [ [ [ -46.727326, -17.616763 ], [ -46.203942, -17.011347 ], [ -47.066485, -16.615562 ], [ -46.727326, -17.616763 ] ] ] } },
{ "type": "Feature", "properties": { "codigo": "3108552", "nome": "Brasilândia de Minas", "uf": "MG", "label_x": 401035.83, "label_y": 8136007.66 }, "geometry": { "type": "Polygon", "coordinates": [ [ [ -45.769339, -17.175985 ], [ -45.504894, -16.960874 ], [ -46.092634, -16.700596 ], [ -45.769339, -17.175985 ] ] ] } },
{ "type": "Feature", "properties": { "codigo": "3170404", "nome": "Unaí", "uf": "MG", "label_x": 315613.24, "label_y": 8184220.0 }, "geometry": { "type": "Polygon", "coordinates": [ [ [ -46.518812, -15.816993 ], [ -47.4557053, -16.4676392 ], [ -46.205108, -16.962518 ], [ -46.518812, -15.816993 ] ] ] } },
{ "type": "Feature", "properties": { "codigo": "3122470", "nome": "Dom Bosco", "uf": "MG", "label_x": 359327.39, "label_y": 8150810.23 }, "geometry": { "type": "Polygon", "coordinates": [ [ [ -46.183583, -16.922183 ], [ -46.305174, -16.545457 ], [ -46.469723, -16.69615 ], [ -46.183583, -16.922183 ] ] ] } },
{ "type": "Feature", "properties": { "codigo": "3108206", "nome": "Bonfinópolis de Minas", "uf": "MG", "label_x": 369434.84, "label_y": 8164839.28 }, "geometry": { "type": "Polygon", "coordinates": [ [ [ -46.509979, -16.309903 ], [ -46.168982, -16.778519 ], [ -45.992269, -16.696541 ], [ -46.509979, -16.309903 ] ] ] } },
{ "type": "Feature", "properties": { "codigo": "3144375", "nome": "Natalândia", "uf": "MG", "label_x": 338915.46, "label_y": 8176366.46 }, "geometry": { "type": "Polygon", "coordinates": [ [ [ -46.383618, -16.499991 ], [ -46.555837, -16.371152 ], [ -46.588034, -16.595912 ], [ -46.383618, -16.499991 ] ] ] } },
{ "type": "Feature", "properties": { "codigo": "3154457", "nome": "Riachinho", "uf": "MG", "label_x": 391494.48, "label_y": 8211878.86 }, "geometry": { "type": "Polygon", "coordinates": [ [ [ -45.652743, -16.170147 ], [ -45.996013, -16.015106 ], [ -46.276311, -16.320192 ], [ -45.652743, -16.170147 ] ] ] } },
{ "type": "Feature", "properties": { "codigo": "3170479", "nome": "Uruana de Minas", "uf": "MG", "label_x": 355347.72, "label_y": 8231151.72 }, "geometry": { "type": "Polygon", "coordinates": [ [ [ -46.183626, -16.024733 ], [ -46.4469952, -15.8751659 ], [ -46.4248948, -16.0848874 ], [ -46.183626, -16.024733 ] ] ] } },
{ "type": "Feature", "properties": { "codigo": "3104502", "nome": "Arinos", "uf": "MG", "label_x": null, "label_y": null }, "geometry": { "type": "Polygon", "coordinates": [ [ [ -45.559944, -15.6933 ], [ -45.603387, -15.438899 ], [ -46.292781, -15.417194 ], [ -45.559944, -15.6933 ] ] ] } },
{ "type": "Feature", "properties": { "codigo": "3109451", "nome": "Cabeceira Grande", "uf": "MG", "label_x": 279698.35, "label_y": 8221321.3 }, "geometry": { "type": "Polygon", "coordinates": [ [ [ -47.3363229, -16.2015876 ], [ -46.889778, -16.115983 ], [ -46.9525457, -15.9166282 ], [ -47.3363229, -16.2015876 ] ] ] } },
{ "type": "Feature", "properties": { "codigo": "3109303", "nome": "Buritis", "uf": "MG", "label_x": 307707.0, "label_y": 8251514.09 }, "geometry": { "type": "Polygon", "coordinates": [ [ [ -46.427346, -15.090305 ], [ -46.9205918, -15.050859 ], [ -46.8062022, -15.8706177 ], [ -46.427346, -15.090305 ] ] ] } },
{ "type": "Feature", "properties": { "codigo": "3126208", "nome": "Formoso", "uf": "MG", "label_x": null, "label_y": null }, "geometry": { "type": "Polygon", "coordinates": [ [ [ -46.5034458, -14.7040758 ], [ -46.28275, -15.415538 ], [ -45.593697, -15.19595 ], [ -46.5034458, -14.7040758 ] ] ] } },
{ "type": "Feature", "properties": { "codigo": "5210109", "nome": "Ipameri", "uf": "GO", "label_x": 209848.37, "label_y": 8116955.53 }, "geometry": { "type": "Polygon", "coordinates": [ [ [ -47.5246179, -17.4119152 ], [ -47.6899499, -16.8991673 ], [ -48.4655917, -17.5993138 ], [ -47.5246179, -17.4119152 ] ] ] } },
{ "type": "Feature", "properties": { "codigo": "5217609", "nome": "Planaltina", "uf": "GO", "label_x": null, "label_y": null }, "geometry": { "type": "Polygon", "coordinates": [ [ [ -47.5708721, -15.0470733 ], [ -48.1072759, -15.1471907 ], [ -48.0543035, -15.502232 ], [ -47.5708721, -15.0470733 ] ] ] } },
{ "type": "Feature", "properties": { "codigo": "5200175", "nome": "Água Fria de Goiás", "uf": "GO", "label_x": null, "label_y": null }, "geometry": { "type": "Polygon", "coordinates": [ [ [ -47.5708721, -15.0470733 ], [ -47.4733943, -14.8053685 ], [ -47.77195, -14.641631 ], [ -47.5708721, -15.0470733 ] ] ] } },
{ "type": "Feature", "properties": { "codigo": "5207907", "nome": "Flores de Goiás", "uf": "GO", "label_x": null, "label_y": null }, "geometry": { "type": "Polygon", "coordinates": [ [ [ -46.9306995, -14.1151523 ], [ -47.031518, -14.0888943 ], [ -47.115417, -14.7799759 ], [ -46.9306995, -14.1151523 ] ] ] } },
{ "type": "Feature", "properties": { "codigo": "5208004", "nome": "Formosa", "uf": "GO", "label_x": null, "label_y": null }, "geometry": { "type": "Polygon", "coordinates": [ [ [ -46.8825769, -15.6100842 ], [ -47.105374, -14.538985 ], [ -47.5740952, -14.9635399 ], [ -46.8825769, -15.6100842 ] ] ] } },
{ "type": "Feature", "properties": { "codigo": "5206206", "nome": "Cristalina", "uf": "GO", "label_x": 227192.85, "label_y": 8158495.88 }, "geometry": { "type": "Polygon", "coordinates": [ [ [ -47.127409, -16.9786518 ], [ -47.6836373, -16.0498484 ], [ -47.894661, -16.9108958 ], [ -47.127409, -16.9786518 ] ] ] } },
{ "type": "Feature", "properties": { "codigo": "5222203", "nome": "Vila Boa", "uf": "GO", "label_x": null, "label_y": null }, "geometry": { "type": "Polygon", "coordinates": [ [ [ -47.1324385, -14.6787542 ], [ -47.2346492, -14.8993297 ], [ -46.9391419, -15.314337 ], [ -46.888319, -15.1125393 ], [ -47.1324385, -14.6787542 ] ] ] } },
{ "type": "Feature", "properties": { "codigo": "5205109", "nome": "Catalão", "uf": "GO", "label_x": null, "label_y": null }, "geometry": { "type": "Polygon", "coordinates": [ [ [ -47.2838683, -18.0583928 ], [ -47.3254145, -17.5238006 ], [ -48.1667839, -17.9571049 ], [ -47.2838683, -18.0583928 ] ] ] } },
{ "type": "Feature", "properties": { "codigo": "5205497", "nome": "Cidade Ocidental", "uf": "GO", "label_x": 204425.55, "label_y": 8215083.38 }, "geometry": { "type": "Polygon", "coordinates": [ [ [ -47.7879582, -16.257881 ], [ -47.6836373, -16.0498484 ], [ -47.938646, -16.0498515 ], [ -47.7879582, -16.257881 ] ] ] } },
{ "type": "Feature", "properties": { "codigo": "5204805", "nome": "Campo Alegre de Goiás", "uf": "GO", "label_x": null, "label_y": null }, "geometry": { "type": "Polygon", "coordinates": [ [ [ -47.6242427, -17.7829786 ], [ -47.7181517, -17.1495929 ], [ -47.8841347, -17.2630883 ], [ -47.6242427, -17.7829786 ] ] ] } },
{ "type": "Feature", "properties": { "codigo": "5220702", "nome": "Sítio d'Abadia", "uf": "GO", "label_x": null, "label_y": null }, "geometry": { "type": "MultiPolygon", "coordinates": [ [ [ [ -46.5225842, -14.8488426 ], [ -46.6197099, -14.8186887 ], [ -46.5613646, -15.0228084 ], [ -46.5225842, -14.8488426 ] ] ], [ [ [ -46.0055037, -14.688998 ], [ -46.3820112, -14.4455268 ], [ -46.3193358, -14.900439 ], [ -46.0055037, -14.688998 ] ] ] ] } },
{ "type": "Feature", "properties": { "codigo": "5212501", "nome": "Luziânia", "uf": "GO", "label_x": 205901.02, "label_y": 8200362.98 }, "geometry": { "type": "Polygon", "coordinates": [ [ [ -47.6410724, -16.282442 ], [ -47.9636214, -16.1047044 ], [ -48.4014166, -16.3834652 ], [ -47.6410724, -16.282442 ] ] ] } },
{ "type": "Feature", "properties": { "codigo": "5204003", "nome": "Cabeceiras", "uf": "GO", "label_x": 300391.48, "label_y": 8251008.98 }, "geometry": { "type": "Polygon", "coordinates": [ [ [ -46.809563, -15.884283 ], [ -46.8548835, -15.6183005 ], [ -47.1812658, -15.6007881 ], [ -46.809563, -15.884283 ] ] ] } },
{ "type": "Feature", "properties": { "codigo": "5300108", "nome": "Brasília", "uf": "DF", "label_x": 236014.56, "label_y": 8244720.29 }, "geometry": { "type": "Polygon", "coordinates": [ [ [ -47.3085041, -16.0499714 ], [ -47.3180116, -15.5891422 ], [ -48.200009, -15.5022783 ], [ -47.3085041, -16.0499714 ] ] ] } }
]
}
