{
"type": "FeatureCollection",
"name": "municipio-utm",
"features": [
{ "type": "Feature", "properties": { }, "geometry": { "type": "Polygon", "coordinates": [ [ [ -46.3999544, -16.8080342 ], [ -46.400549, -16.802601 ], [ -46.401192, -16.801977 ], [ -46.405645, -16.803274 ], [ -46.409609, -16.802223 ], [ -46.411164, -16.802286 ], [ -46.413127, -16.802878 ], [ -46.415716, -16.804595 ], [ -46.416837, -16.803831 ], [ -46.41599, -16.801462 ], [ -46.415737, -16.797801 ], [ -46.415208, -16.79702 ], [ -46.40831, -16.794098 ], [ -46.406415, -16.79247 ], [ -46.406404, -16.789637 ], [ -46.407418, -16.785948 ], [ -46.409438, -16.782901 ], [ -46.410501, -16.779765 ], [ -46.409948, -16.778961 ], [ -46.407029, -16.77835 ], [ -46.405304, -16.777251 ], [ -46.403237, -16.774495 ], [ -46.402873, -16.773068 ], [ -46.403849, -16.771936 ], [ -46.406956, -16.771902 ], [ -46.409368, -16.771294 ], [ -46.41123, -16.770527 ], [ -46.413709, -16.76863 ], [ -46.414689, -16.76881 ], [ -46.416538, -16.77083 ], [ -46.419096, -16.770706 ], [ -46.419402, -16.769737 ], [ -46.418672, -16.766378 ], [ -46.420022, -16.763287 ], [ -46.419969, -16.761882 ], [ -46.41944, -16.761078 ], [ -46.417524, -16.760325 ], [ -46.411025, -16.761086 ], [ -46.407293, -16.760339 ], [ -46.406045, -16.759008 ], [ -46.405392, -16.756892 ], [ -46.405859, -16.754034 ], [ -46.415538, -16.747712 ], [ -46.419417, -16.743299 ], [ -46.420753, -16.742626 ], [ -46.421733, -16.742553 ], [ -46.423124, -16.74393 ], [ -46.424153, -16.744226 ], [ -46.433093, -16.744423 ], [ -46.440583, -16.746398 ], [ -46.442513, -16.744963 ], [ -46.443674, -16.742379 ], [ -46.441374, -16.735387 ], [ -46.439431, -16.733436 ], [ -46.438066, -16.732866 ], [ -46.436251, -16.733241 ], [ -46.432326, -16.737885 ], [ -46.430706, -16.739112 ], [ -46.429248, -16.739278 ], [ -46.428362, -16.738752 ], [ -46.427063, -16.736569 ], [ -46.42597, -16.732381 ], [ -46.428758, -16.730275 ], [ -46.431789, -16.729205 ], [ -46.433719, -16.727585 ], [ -46.433763, -16.726664 ], [ -46.431887, -16.723884 ], [ -46.431499, -16.722481 ], [ -46.432159, -16.720083 ], [ -46.436182, -16.716107 ], [ -46.441582, -16.71581 ], [ -46.444117, -16.716423 ], [ -46.445381, -16.715704 ], [ -46.447173, -16.709847 ], [ -46.449793, -16.707719 ], [ -46.45228, -16.708055 ], [ -46.455298, -16.709678 ], [ -46.461103, -16.714884 ], [ -46.463473, -16.71598 ], [ -46.46615, -16.716062 ], [ -46.469967, -16.714412 ], [ -46.471608, -16.712517 ], [ -46.471386, -16.710951 ], [ -46.468084, -16.709951 ], [ -46.465903, -16.708532 ], [ -46.465785, -16.703097 ], [ -46.466353, -16.701759 ], [ -46.467211, -16.701272 ], [ -46.469866, -16.701838 ], [ -46.476597, -16.705611 ], [ -46.482289, -16.706786 ], [ -46.485249, -16.705968 ], [ -46.487888, -16.702803 ], [ -46.489322, -16.697224 ], [ -46.488881, -16.694784 ], [ -46.488042, -16.694143 ], [ -46.482013, -16.692394 ], [ -46.479854, -16.690399 ], [ -46.480136, -16.68943 ], [ -46.481232, -16.688528 ], [ -46.486246, -16.687633 ], [ -46.489704, -16.686053 ], [ -46.490962, -16.684136 ], [ -46.490362, -16.678082 ], [ -46.486086, -16.67271 ], [ -46.485309, -16.669742 ], [ -46.484178, -16.667905 ], [ -46.477206, -16.663372 ], [ -46.476796, -16.662384 ], [ -46.478067, -16.657819 ], [ -46.478565, -16.651276 ], [ -46.479396, -16.650075 ], [ -46.482383, -16.650363 ], [ -46.485546, -16.652538 ], [ -46.489134, -16.653606 ], [ -46.491092, -16.653414 ], [ -46.495838, -16.651369 ], [ -46.49849, -16.651473 ], [ -46.5006, -16.652549 ], [ -46.501985, -16.65257 ], [ -46.504911, -16.651831 ], [ -46.506722, -16.650592 ], [ -46.509677, -16.646515 ], [ -46.509821, -16.644997 ], [ -46.508021, -16.641057 ], [ -46.507221, -16.640285 ], [ -46.505059, -16.639608 ], [ -46.501734, -16.637003 ], [ -46.50175, -16.63599 ], [ -46.503628, -16.633509 ], [ -46.503698, -16.632128 ], [ -46.498196, -16.627685 ], [ -46.497546, -16.626467 ], [ -46.498231, -16.624806 ], [ -46.499017, -16.624365 ], [ -46.500906, -16.624581 ], [ -46.503608, -16.627338 ], [ -46.50626, -16.628736 ], [ -46.509244, -16.63182 ], [ -46.512526, -16.634125 ], [ -46.514516, -16.635144 ], [ -46.519249, -16.63632 ], [ -46.521901, -16.636244 ], [ -46.526217, -16.635157 ], [ -46.530899, -16.632026 ], [ -46.533791, -16.631861 ], [ -46.535034, -16.633284 ], [ -46.535915, -16.636474 ], [ -46.537607, -16.63818 ], [ -46.537196, -16.640015 ], [ -46.535172, -16.642702 ], [ -46.536053, -16.644327 ], [ -46.538192, -16.645003 ], [ -46.544523, -16.644843 ], [ -46.546671, -16.64644 ], [ -46.548715, -16.647022 ], [ -46.549038, -16.646267 ], [ -46.547425, -16.64256 ], [ -46.550257, -16.640115 ], [ -46.553255, -16.634795 ], [ -46.555358, -16.633145 ], [ -46.555638, -16.632068 ], [ -46.555424, -16.630499 ], [ -46.554258, -16.628732 ], [ -46.550091, -16.626484 ], [ -46.549009, -16.625409 ], [ -46.54894, -16.622254 ], [ -46.549574, -16.621411 ], [ -46.55158, -16.621418 ], [ -46.555208, -16.624487 ], [ -46.557254, -16.624977 ], [ -46.558172, -16.624323 ], [ -46.558962, -16.6227 ], [ -46.558931, -16.620098 ], [ -46.557251, -16.616091 ], [ -46.555108, -16.612698 ], [ -46.555479, -16.610355 ], [ -46.557387, -16.605963 ], [ -46.558747, -16.60451 ], [ -46.563837, -16.604239 ], [ -46.5654, -16.603502 ], [ -46.566519, -16.602229 ], [ -46.566277, -16.60089 ], [ -46.565175, -16.599585 ], [ -46.560623, -16.597561 ], [ -46.560016, -16.596701 ], [ -46.561162, -16.590663 ], [ -46.560115, -16.585859 ], [ -46.563445, -16.583605 ], [ -46.573295, -16.584279 ], [ -46.57429, -16.584754 ], [ -46.575647, -16.588043 ], [ -46.575269, -16.590846 ], [ -46.573673, -16.593608 ], [ -46.573842, -16.595038 ], [ -46.574523, -16.595785 ], [ -46.578582, -16.595729 ], [ -46.580794, -16.600849 ], [ -46.586384, -16.597592 ], [ -46.58781, -16.596462 ], [ -46.588065, -16.595429 ], [ -46.587041, -16.593734 ], [ -46.581984, -16.591911 ], [ -46.580434, -16.590277 ], [ -46.579677, -16.588355 ], [ -46.579525, -16.584301 ], [ -46.576657, -16.578457 ], [ -46.575889, -16.575614 ], [ -46.575112, -16.574981 ], [ -46.572516, -16.574575 ], [ -46.573113, -16.573018 ], [ -46.572682, -16.571585 ], [ -46.56963, -16.56834 ], [ -46.565054, -16.561781 ], [ -46.565104, -16.560147 ], [ -46.56633, -16.558093 ], [ -46.56566, -16.550624 ], [ -46.564753, -16.547549 ], [ -46.567059, -16.545165 ], [ -46.566258, -16.544486 ], [ -46.564247, -16.544871 ], [ -46.562895, -16.544321 ], [ -46.561814, -16.543224 ], [ -46.56099, -16.541001 ], [ -46.561832, -16.537583 ], [ -46.562147, -16.537243 ], [ -46.564718, -16.537672 ], [ -46.565048, -16.53641 ], [ -46.563599, -16.536021 ], [ -46.562762, -16.534581 ], [ -46.55875, -16.533233 ], [ -46.557342, -16.533212 ], [ -46.555279, -16.530834 ], [ -46.55385, -16.530628 ], [ -46.555238, -16.524387 ], [ -46.556973, -16.523353 ], [ -46.557417, -16.522393 ], [ -46.556749, -16.517894 ], [ -46.557328, -16.514472 ], [ -46.556369, -16.513192 ], [ -46.553417, -16.511237 ], [ -46.54935, -16.510394 ], [ -46.547012, -16.507298 ], [ -46.544654, -16.505536 ], [ -46.5438, -16.503728 ], [ -46.542218, -16.502669 ], [ -46.540568, -16.499836 ], [ -46.538862, -16.498882 ], [ -46.538015, -16.495535 ], [ -46.538946, -16.486588 ], [ -46.53707, -16.483599 ], [ -46.533596, -16.480432 ], [ -46.532758, -16.478513 ], [ -46.533071, -16.47603 ], [ -46.53502, -16.472296 ], [ -46.53623, -16.468532 ], [ -46.53678, -16.464025 ], [ -46.534522, -16.460986 ], [ -46.529608, -16.458634 ], [ -46.528054, -16.456708 ], [ -46.528285, -16.455259 ], [ -46.530055, -16.45263 ], [ -46.533798, -16.448431 ], [ -46.538712, -16.437498 ], [ -46.539369, -16.434074 ], [ -46.543716, -16.422559 ], [ -46.544445, -16.414715 ], [ -46.547425, -16.408183 ], [ -46.548618, -16.403728 ], [ -46.548453, -16.401309 ], [ -46.550781, -16.397741 ], [ -46.550892, -16.396291 ], [ -46.55007, -16.395132 ], [ -46.550175, -16.394235 ], [ -46.551989, -16.389717 ], [ -46.553246, -16.388095 ], [ -46.556111, -16.379006 ], [ -46.557987, -16.375295 ], [ -46.558122, -16.373777 ], [ -46.556287, -16.371433 ], [ -46.554834, -16.37128 ], [ -46.552769, -16.372549 ], [ -46.54564, -16.379016 ], [ -46.542427, -16.380596 ], [ -46.540872, -16.381064 ], [ -46.535178, -16.380477 ], [ -46.53205, -16.380836 ], [ -46.525331, -16.384521 ], [ -46.522468, -16.384608 ], [ -46.514117, -16.382727 ], [ -46.512459, -16.381651 ], [ -46.510333, -16.377623 ], [ -46.512874, -16.36335 ], [ -46.512838, -16.360149 ], [ -46.512041, -16.356688 ], [ -46.510696, -16.353174 ], [ -46.502965, -16.342803 ], [ -46.500932, -16.338983 ], [ -46.500251, -16.335867 ], [ -46.500269, -16.334279 ], [ -46.501326, -16.331366 ], [ -46.505849, -16.327705 ], [ -46.511082, -16.322371 ], [ -46.512519, -16.319599 ], [ -46.512203, -16.315843 ], [ -46.508762, -16.307795 ], [ -46.506539, -16.30623 ], [ -46.503421, -16.305714 ], [ -46.502253, -16.305725 ], [ -46.496439, -16.308047 ], [ -46.489834, -16.307683 ], [ -46.487782, -16.307115 ], [ -46.480398, -16.302975 ], [ -46.473438, -16.297473 ], [ -46.471282, -16.294672 ], [ -46.469297, -16.293251 ], [ -46.458712, -16.28698 ], [ -46.448564, -16.282963 ], [ -46.442693, -16.281325 ], [ -46.434193, -16.27767 ], [ -46.427777, -16.276863 ], [ -46.416585, -16.273769 ], [ -46.412977, -16.271455 ], [ -46.405395, -16.264549 ], [ -46.401361, -16.262973 ], [ -46.399167, -16.262704 ], [ -46.389369, -16.262735 ], [ -46.383937, -16.263604 ], [ -46.381176, -16.264949 ], [ -46.379181, -16.267073 ], [ -46.376992, -16.268485 ], [ -46.370991, -16.270323 ], [ -46.364522, -16.275017 ], [ -46.360993, -16.274936 ], [ -46.357341, -16.273589 ], [ -46.353024, -16.272934 ], [ -46.350899, -16.27195 ], [ -46.346111, -16.273047 ], [ -46.341034, -16.273522 ], [ -46.339749, -16.274332 ], [ -46.338066, -16.277216 ], [ -46.33573, -16.284914 ], [ -46.33381, -16.288512 ], [ -46.329502, -16.290919 ], [ -46.32608, -16.294729 ], [ -46.321107, -16.297875 ], [ -46.314024, -16.297411 ], [ -46.311402, -16.298515 ], [ -46.308409, -16.293651 ], [ -46.307447, -16.290706 ], [ -46.307195, -16.286331 ], [ -46.307614, -16.282899 ], [ -46.311998, -16.274067 ], [ -46.313947, -16.272081 ], [ -46.314752, -16.270283 ], [ -46.313835, -16.266739 ], [ -46.309936, -16.262214 ], [ -46.308971, -16.25867 ], [ -46.310305, -16.25816 ], [ -46.310396, -16.256847 ], [ -46.312847, -16.255297 ], [ -46.31477, -16.252782 ], [ -46.317392, -16.252521 ], [ -46.318228, -16.253025 ], [ -46.319634, -16.252952 ], [ -46.322251, -16.251379 ], [ -46.327616, -16.251778 ], [ -46.329312, -16.252763 ], [ -46.33079, -16.252874 ], [ -46.333195, -16.251946 ], [ -46.335995, -16.248069 ], [ -46.342432, -16.248303 ], [ -46.344742, -16.247652 ], [ -46.345383, -16.246706 ], [ -46.346198, -16.24067 ], [ -46.345796, -16.234338 ], [ -46.34695, -16.229914 ], [ -46.350158, -16.226703 ], [ -46.352943, -16.225544 ], [ -46.356153, -16.223185 ], [ -46.356778, -16.217472 ], [ -46.362898, -16.208496 ], [ -46.365545, -16.201856 ], [ -46.366154, -16.198677 ], [ -46.367551, -16.195978 ], [ -46.367566, -16.193031 ], [ -46.368565, -16.192452 ], [ -46.37071, -16.192491 ], [ -46.371581, -16.189311 ], [ -46.372275, -16.190368 ], [ -46.374542, -16.191282 ], [ -46.37547, -16.190865 ], [ -46.376806, -16.191367 ], [ -46.37814, -16.191018 ], [ -46.379114, -16.190047 ], [ -46.379252, -16.188665 ], [ -46.378772, -16.187815 ], [ -46.379763, -16.184634 ], [ -46.379514, -16.181641 ], [ -46.378556, -16.180055 ], [ -46.378798, -16.173883 ], [ -46.380051, -16.171047 ], [ -46.382547, -16.16922 ], [ -46.389783, -16.167148 ], [ -46.395825, -16.164135 ], [ -46.398439, -16.161893 ], [ -46.39895, -16.158276 ], [ -46.3976722, -16.1547458 ], [ -46.3913017, -16.1541227 ], [ -46.3875422, -16.1510061 ], [ -46.3858895, -16.1485122 ], [ -46.383929, -16.140892 ], [ -46.385977, -16.126355 ], [ -46.388726, -16.121879 ], [ -46.394546, -16.117209 ], [ -46.395076, -16.111727 ], [ -46.396019, -16.109007 ], [ -46.395772, -16.106429 ], [ -46.396888, -16.105366 ], [ -46.394214, -16.103532 ], [ -46.393228, -16.100703 ], [ -46.388634, -16.0945 ], [ -46.3886111, -16.0933136 ], [ -46.3860058, -16.0923817 ], [ -46.3835293, -16.0898399 ], [ -46.3837799, -16.0882295 ], [ -46.3821206, -16.0875352 ], [ -46.3832024, -16.085811 ], [ -46.3830923, -16.0847814 ], [ -46.3796561, -16.083954 ], [ -46.3794221, -16.0825817 ], [ -46.381919, -16.0827102 ], [ -46.3838202, -16.0819116 ], [ -46.385501, -16.0789362 ], [ -46.3896846, -16.0756283 ], [ -46.3920638, -16.074953 ], [ -46.3927892, -16.0731135 ], [ -46.3951703, -16.0714079 ], [ -46.3972655, -16.0689528 ], [ -46.4140674, -16.0812674 ], [ -46.419741, -16.0837877 ], [ -46.424399, -16.0852898 ], [ -46.4248948, -16.0848874 ], [ -46.4244642, -16.0805172 ], [ -46.4195228, -16.0724787 ], [ -46.4171101, -16.0701169 ], [ -46.4087894, -16.0653559 ], [ -46.408236, -16.059482 ], [ -46.4084988, -16.0584452 ], [ -46.4145937, -16.0551976 ], [ -46.4220785, -16.0485698 ], [ -46.4263837, -16.0461376 ], [ -46.432747, -16.041165 ], [ -46.434043, -16.037315 ], [ -46.433611, -16.036395 ], [ -46.430124, -16.033436 ], [ -46.42707, -16.031696 ], [ -46.422445, -16.030054 ], [ -46.421003, -16.026097 ], [ -46.417421, -16.023069 ], [ -46.416145, -16.018975 ], [ -46.41288, -16.017949 ], [ -46.410655, -16.015055 ], [ -46.408206, -16.01603 ], [ -46.406776, -16.015481 ], [ -46.406001, -16.01173 ], [ -46.404588, -16.009064 ], [ -46.399049, -16.00443 ], [ -46.398972, -16.002818 ], [ -46.400391, -16.000004 ], [ -46.400336, -15.998653 ], [ -46.39874, -15.997041 ], [ -46.395873, -15.996346 ], [ -46.39316, -15.994819 ], [ -46.392964, -15.992865 ], [ -46.394125, -15.989418 ], [ -46.394143, -15.987507 ], [ -46.393784, -15.985855 ], [ -46.391881, -15.982797 ], [ -46.392486, -15.981891 ], [ -46.396124, -15.9817 ], [ -46.397886, -15.980202 ], [ -46.397042, -15.976369 ], [ -46.393624, -15.975429 ], [ -46.396588, -15.973199 ], [ -46.397551, -15.970791 ], [ -46.397212, -15.968908 ], [ -46.395076, -15.967718 ], [ -46.395108, -15.966705 ], [ -46.397626, -15.96637 ], [ -46.399861, -15.964703 ], [ -46.401407, -15.964681 ], [ -46.403009, -15.965187 ], [ -46.406594, -15.967714 ], [ -46.409062, -15.967287 ], [ -46.409034, -15.965422 ], [ -46.406991, -15.964163 ], [ -46.406454, -15.963296 ], [ -46.407043, -15.961353 ], [ -46.407795, -15.960698 ], [ -46.409797, -15.960899 ], [ -46.414113, -15.956854 ], [ -46.419387, -15.954752 ], [ -46.419561, -15.953736 ], [ -46.419072, -15.952892 ], [ -46.416585, -15.952099 ], [ -46.415931, -15.951326 ], [ -46.416481, -15.948417 ], [ -46.423804, -15.9496 ], [ -46.42548, -15.947182 ], [ -46.428969, -15.94819 ], [ -46.430891, -15.94784 ], [ -46.429383, -15.944155 ], [ -46.426905, -15.942396 ], [ -46.426921, -15.941889 ], [ -46.429492, -15.94047 ], [ -46.429706, -15.937405 ], [ -46.430194, -15.936615 ], [ -46.435262, -15.935091 ], [ -46.43627, -15.934156 ], [ -46.43654, -15.933162 ], [ -46.437885, -15.932452 ], [ -46.441976, -15.935385 ], [ -46.444572, -15.934058 ], [ -46.448785, -15.934112 ], [ -46.449939, -15.933404 ], [ -46.449523, -15.93265 ], [ -46.448618, -15.932595 ], [ -46.448272, -15.931771 ], [ -46.449741, -15.928342 ], [ -46.446568, -15.926225 ], [ -46.450317, -15.924052 ], [ -46.450214, -15.922028 ], [ -46.448749, -15.919609 ], [ -46.448686, -15.917146 ], [ -46.44979, -15.916186 ], [ -46.452762, -15.916074 ], [ -46.453441, -15.915396 ], [ -46.453404, -15.914522 ], [ -46.452027, -15.913184 ], [ -46.455125, -15.910514 ], [ -46.454938, -15.907662 ], [ -46.455762, -15.907121 ], [ -46.4579521, -15.9083067 ], [ -46.4586592, -15.9079494 ], [ -46.4589947, -15.9065643 ], [ -46.4581476, -15.9056572 ], [ -46.4582556, -15.9050871 ], [ -46.4589511, -15.9043864 ], [ -46.4607338, -15.9042478 ], [ -46.4616727, -15.903654 ], [ -46.4632409, -15.8995683 ], [ -46.463238, -15.8991562 ], [ -46.4612432, -15.8984369 ], [ -46.4625122, -15.8970544 ], [ -46.4618383, -15.8955476 ], [ -46.4572415, -15.8927364 ], [ -46.4599584, -15.8902422 ], [ -46.4582952, -15.8885899 ], [ -46.4556632, -15.8832129 ], [ -46.4469952, -15.8751659 ], [ -46.448066, -15.874267 ], [ -46.449058, -15.872296 ], [ -46.449656, -15.867959 ], [ -46.451777, -15.862149 ], [ -46.456183, -15.856399 ], [ -46.457705, -15.851517 ], [ -46.463343, -15.848858 ], [ -46.475229, -15.840949 ], [ -46.480026, -15.83899 ], [ -46.48744, -15.837108 ], [ -46.488892, -15.837202 ], [ -46.494008, -15.832891 ], [ -46.496509, -15.831656 ], [ -46.498075, -15.831449 ], [ -46.500352, -15.832066 ], [ -46.504195, -15.830182 ], [ -46.508818, -15.826194 ], [ -46.511803, -15.822378 ], [ -46.516731, -15.818043 ], [ -46.521347, -15.816307 ], [ -46.528567, -15.816436 ], [ -46.533138, -15.817919 ], [ -46.544466, -15.824062 ], [ -46.549344, -15.825289 ], [ -46.55268, -15.826712 ], [ -46.556745, -15.827278 ], [ -46.562655, -15.826911 ], [ -46.56634, -15.827388 ], [ -46.569136, -15.826746 ], [ -46.58092, -15.821735 ], [ -46.585639, -15.81825 ], [ -46.592635, -15.814356 ], [ -46.594628, -15.811352 ], [ -46.596329, -15.810373 ], [ -46.597825, -15.810338 ], [ -46.599256, -15.811132 ], [ -46.60161, -15.814331 ], [ -46.605517, -15.815841 ], [ -46.606562, -15.81597 ], [ -46.612438, -15.814406 ], [ -46.618183, -15.808706 ], [ -46.622597, -15.802901 ], [ -46.624461, -15.79884 ], [ -46.627638, -15.795504 ], [ -46.63049, -15.793068 ], [ -46.635506, -15.791074 ], [ -46.637745, -15.78924 ], [ -46.641806, -15.789391 ], [ -46.650824, -15.791731 ], [ -46.6554, -15.791097 ], [ -46.663999, -15.791601 ], [ -46.668335, -15.793313 ], [ -46.675425, -15.795093 ], [ -46.682696, -15.798504 ], [ -46.68705, -15.799618 ], [ -46.693469, -15.800622 ], [ -46.696027, -15.799934 ], [ -46.698188, -15.799962 ], [ -46.703523, -15.80194 ], [ -46.707805, -15.80287 ], [ -46.714886, -15.806143 ], [ -46.716659, -15.807921 ], [ -46.718615, -15.809008 ], [ -46.731818, -15.811907 ], [ -46.733797, -15.81281 ], [ -46.736535, -15.824073 ], [ -46.737729, -15.827442 ], [ -46.738762, -15.828789 ], [ -46.740892, -15.83061 ], [ -46.742298, -15.831149 ], [ -46.749933, -15.832601 ], [ -46.754232, -15.835299 ], [ -46.76238, -15.838355 ], [ -46.765532, -15.840282 ], [ -46.769456, -15.843488 ], [ -46.772829, -15.851274 ], [ -46.774605, -15.853305 ], [ -46.776586, -15.856896 ], [ -46.780041, -15.860704 ], [ -46.785452, -15.865461 ], [ -46.788336, -15.866493 ], [ -46.790826, -15.866126 ], [ -46.793119, -15.865026 ], [ -46.795139, -15.865169 ], [ -46.798404, -15.866404 ], [ -46.802568, -15.869838 ], [ -46.8062022, -15.8706177 ], [ -46.8061193, -15.872 ], [ -46.8069612, -15.8743805 ], [ -46.8068987, -15.879249 ], [ -46.809563, -15.884283 ], [ -46.8117212, -15.8860912 ], [ -46.8143581, -15.8871836 ], [ -46.8205725, -15.8853912 ], [ -46.824868, -15.8857186 ], [ -46.9525457, -15.9166282 ], [ -46.95201, -15.917824 ], [ -46.946401, -15.922634 ], [ -46.944187, -15.925608 ], [ -46.938905, -15.931019 ], [ -46.938959, -15.933045 ], [ -46.937708, -15.934553 ], [ -46.937705, -15.937638 ], [ -46.938725, -15.940638 ], [ -46.940562, -15.942771 ], [ -46.940743, -15.943808 ], [ -46.94216, -15.944971 ], [ -46.941305, -15.947473 ], [ -46.942119, -15.949597 ], [ -46.942111, -15.950517 ], [ -46.941438, -15.951271 ], [ -46.941655, -15.953621 ], [ -46.941904, -15.955027 ], [ -46.942823, -15.956024 ], [ -46.942824, -15.958579 ], [ -46.944073, -15.962663 ], [ -46.944046, -15.965678 ], [ -46.943269, -15.967536 ], [ -46.941806, -15.968859 ], [ -46.941241, -15.970857 ], [ -46.944334, -15.973552 ], [ -46.944874, -15.977032 ], [ -46.944632, -15.9829 ], [ -46.946355, -15.984502 ], [ -46.947827, -15.984882 ], [ -46.948626, -15.98604 ], [ -46.948367, -15.988385 ], [ -46.948974, -15.992372 ], [ -46.952888, -15.999286 ], [ -46.953072, -15.999994 ], [ -46.952215, -16.000971 ], [ -46.951005, -16.00057 ], [ -46.950597, -16.000935 ], [ -46.951048, -16.0011 ], [ -46.951182, -16.002068 ], [ -46.950661, -16.004481 ], [ -46.95142, -16.00741 ], [ -46.952202, -16.007808 ], [ -46.952588, -16.009906 ], [ -46.951376, -16.01229 ], [ -46.950586, -16.012813 ], [ -46.949181, -16.012894 ], [ -46.946719, -16.014116 ], [ -46.944338, -16.014165 ], [ -46.942536, -16.01613 ], [ -46.941855, -16.017736 ], [ -46.939485, -16.019235 ], [ -46.939844, -16.021655 ], [ -46.937854, -16.025966 ], [ -46.937452, -16.028265 ], [ -46.933674, -16.032814 ], [ -46.932935, -16.035571 ], [ -46.932098, -16.036001 ], [ -46.930442, -16.034859 ], [ -46.929717, -16.036142 ], [ -46.929579, -16.038213 ], [ -46.926832, -16.041919 ], [ -46.923128, -16.048771 ], [ -46.916597, -16.052261 ], [ -46.915606, -16.053933 ], [ -46.913421, -16.055963 ], [ -46.91258, -16.059478 ], [ -46.910859, -16.060246 ], [ -46.910612, -16.061211 ], [ -46.91141, -16.062484 ], [ -46.912947, -16.063648 ], [ -46.914447, -16.066239 ], [ -46.916418, -16.066762 ], [ -46.917378, -16.06852 ], [ -46.916106, -16.075001 ], [ -46.914634, -16.077129 ], [ -46.912537, -16.082521 ], [ -46.91065, -16.083219 ], [ -46.909176, -16.083045 ], [ -46.907988, -16.085291 ], [ -46.90636, -16.086313 ], [ -46.906796, -16.088158 ], [ -46.905717, -16.088932 ], [ -46.906707, -16.090045 ], [ -46.906955, -16.091544 ], [ -46.904007, -16.09633 ], [ -46.90076, -16.099871 ], [ -46.900342, -16.101363 ], [ -46.89929, -16.101769 ], [ -46.897487, -16.101017 ], [ -46.896009, -16.101257 ], [ -46.893509, -16.103814 ], [ -46.894236, -16.105018 ], [ -46.890833, -16.107337 ], [ -46.888358, -16.109848 ], [ -46.889319, -16.111421 ], [ -46.88875, -16.113613 ], [ -46.889581, -16.114025 ], [ -46.890203, -16.116309 ], [ -46.893631, -16.116454 ], [ -46.894992, -16.118652 ], [ -46.899019, -16.118502 ], [ -46.899342, -16.11961 ], [ -46.900169, -16.120285 ], [ -46.901146, -16.120247 ], [ -46.902873, -16.118904 ], [ -46.904207, -16.1188 ], [ -46.91316, -16.121615 ], [ -46.915742, -16.123156 ], [ -46.916893, -16.124915 ], [ -46.922609, -16.127519 ], [ -46.924086, -16.127439 ], [ -46.926357, -16.131763 ], [ -46.929409, -16.134067 ], [ -46.933518, -16.135345 ], [ -46.935432, -16.134279 ], [ -46.939167, -16.126805 ], [ -46.941499, -16.124247 ], [ -46.94489, -16.123193 ], [ -46.949581, -16.123324 ], [ -46.953513, -16.120249 ], [ -46.956202, -16.120524 ], [ -46.959236, -16.122091 ], [ -46.962071, -16.122046 ], [ -46.964532, -16.118314 ], [ -46.968603, -16.115815 ], [ -46.973487, -16.110077 ], [ -46.974677, -16.107439 ], [ -46.977452, -16.105874 ], [ -46.980523, -16.103228 ], [ -46.984819, -16.102089 ], [ -46.988095, -16.100551 ], [ -46.992414, -16.102197 ], [ -46.992585, -16.104431 ], [ -46.993578, -16.105268 ], [ -46.993799, -16.107318 ], [ -46.993581, -16.107754 ], [ -46.992679, -16.107425 ], [ -46.991936, -16.107902 ], [ -46.992107, -16.110205 ], [ -46.991257, -16.112063 ], [ -46.992732, -16.115044 ], [ -46.991604, -16.116002 ], [ -46.990442, -16.118179 ], [ -46.990282, -16.120181 ], [ -46.988351, -16.120488 ], [ -46.987604, -16.121494 ], [ -46.989256, -16.123142 ], [ -46.990756, -16.123246 ], [ -46.992035, -16.12397 ], [ -46.992942, -16.123793 ], [ -46.992861, -16.124921 ], [ -46.991472, -16.12583 ], [ -46.991008, -16.127162 ], [ -46.991885, -16.127583 ], [ -46.992817, -16.127268 ], [ -46.993525, -16.127988 ], [ -46.993295, -16.129804 ], [ -46.994175, -16.129926 ], [ -46.99438, -16.130964 ], [ -46.993207, -16.134476 ], [ -46.995637, -16.13712 ], [ -46.996857, -16.139271 ], [ -46.99674, -16.141756 ], [ -46.995509, -16.146419 ], [ -46.995943, -16.148655 ], [ -46.994692, -16.152812 ], [ -46.995449, -16.153393 ], [ -46.995723, -16.154777 ], [ -46.996698, -16.154923 ], [ -46.997, -16.155869 ], [ -46.996384, -16.158281 ], [ -46.994591, -16.159003 ], [ -46.993997, -16.164431 ], [ -46.993131, -16.165414 ], [ -46.99367, -16.166339 ], [ -46.995047, -16.166925 ], [ -46.998313, -16.172131 ], [ -47.000814, -16.173632 ], [ -47.00017, -16.176946 ], [ -47.000464, -16.178346 ], [ -47.006114, -16.183898 ], [ -47.007628, -16.186348 ], [ -47.009514, -16.187348 ], [ -47.011795, -16.187058 ], [ -47.014304, -16.185135 ], [ -47.016757, -16.185534 ], [ -47.018014, -16.184974 ], [ -47.019162, -16.186048 ], [ -47.020664, -16.186521 ], [ -47.021921, -16.185916 ], [ -47.023491, -16.185929 ], [ -47.024553, -16.184681 ], [ -47.024736, -16.183577 ], [ -47.027137, -16.183355 ], [ -47.028286, -16.17728 ], [ -47.031329, -16.177077 ], [ -47.032746, -16.175552 ], [ -47.035016, -16.177055 ], [ -47.036135, -16.177232 ], [ -47.039365, -16.176591 ], [ -47.042339, -16.176664 ], [ -47.045547, -16.179885 ], [ -47.049117, -16.180231 ], [ -47.05186, -16.181363 ], [ -47.052919, -16.183195 ], [ -47.053412, -16.185697 ], [ -47.05439, -16.186196 ], [ -47.05615, -16.186093 ], [ -47.058329, -16.184815 ], [ -47.058728, -16.18394 ], [ -47.057818, -16.179578 ], [ -47.058197, -16.175737 ], [ -47.059469, -16.174028 ], [ -47.061458, -16.172614 ], [ -47.063425, -16.171544 ], [ -47.064542, -16.171468 ], [ -47.066359, -16.172813 ], [ -47.066974, -16.17582 ], [ -47.067909, -16.176917 ], [ -47.071175, -16.178114 ], [ -47.072615, -16.183461 ], [ -47.073551, -16.184742 ], [ -47.07448, -16.18492 ], [ -47.075546, -16.1842 ], [ -47.076568, -16.184194 ], [ -47.078511, -16.186457 ], [ -47.079106, -16.186568 ], [ -47.080878, -16.184833 ], [ -47.081806, -16.18485 ], [ -47.082525, -16.185719 ], [ -47.08175, -16.187126 ], [ -47.081665, -16.188574 ], [ -47.084544, -16.188763 ], [ -47.089962, -16.191371 ], [ -47.091967, -16.189082 ], [ -47.092562, -16.189056 ], [ -47.093329, -16.189947 ], [ -47.093823, -16.192541 ], [ -47.09574, -16.191103 ], [ -47.09859, -16.190556 ], [ -47.101764, -16.188651 ], [ -47.102834, -16.192 ], [ -47.104284, -16.191829 ], [ -47.10518, -16.19072 ], [ -47.106484, -16.190114 ], [ -47.110024, -16.192941 ], [ -47.112948, -16.192715 ], [ -47.113965, -16.195236 ], [ -47.114896, -16.195759 ], [ -47.115941, -16.195476 ], [ -47.116283, -16.193474 ], [ -47.118934, -16.194905 ], [ -47.121314, -16.195142 ], [ -47.126566, -16.194441 ], [ -47.12998, -16.19297 ], [ -47.134677, -16.194455 ], [ -47.13607, -16.193021 ], [ -47.139498, -16.193504 ], [ -47.141005, -16.191379 ], [ -47.143116, -16.190607 ], [ -47.148333, -16.191652 ], [ -47.1512, -16.193379 ], [ -47.153369, -16.194031 ], [ -47.155092, -16.195444 ], [ -47.156751, -16.194721 ], [ -47.161537, -16.195355 ], [ -47.163961, -16.195154 ], [ -47.165737, -16.194085 ], [ -47.166394, -16.192793 ], [ -47.169206, -16.193579 ], [ -47.173177, -16.193413 ], [ -47.176325, -16.191277 ], [ -47.178081, -16.190714 ], [ -47.185603, -16.191512 ], [ -47.186955, -16.19433 ], [ -47.187502, -16.194303 ], [ -47.19001, -16.192493 ], [ -47.193629, -16.193042 ], [ -47.194685, -16.191081 ], [ -47.196035, -16.190314 ], [ -47.197012, -16.190583 ], [ -47.198857, -16.192316 ], [ -47.200953, -16.192807 ], [ -47.201418, -16.191333 ], [ -47.204159, -16.188924 ], [ -47.206719, -16.18778 ], [ -47.208478, -16.187675 ], [ -47.20991, -16.188378 ], [ -47.213504, -16.191823 ], [ -47.226439, -16.200695 ], [ -47.226729, -16.204393 ], [ -47.228805, -16.205274 ], [ -47.228935, -16.206813 ], [ -47.232395, -16.211293 ], [ -47.232796, -16.214048 ], [ -47.233968, -16.214844 ], [ -47.239204, -16.212071 ], [ -47.240582, -16.211947 ], [ -47.242287, -16.214003 ], [ -47.244678, -16.215617 ], [ -47.24803, -16.215432 ], [ -47.253423, -16.217531 ], [ -47.255136, -16.217633 ], [ -47.259353, -16.215419 ], [ -47.261217, -16.213475 ], [ -47.264252, -16.212327 ], [ -47.270507, -16.212212 ], [ -47.27402, -16.214324 ], [ -47.276568, -16.214604 ], [ -47.279596, -16.212513 ], [ -47.285418, -16.211895 ], [ -47.28951, -16.215014 ], [ -47.290784, -16.216682 ], [ -47.291061, -16.218541 ], [ -47.291758, -16.219455 ], [ -47.29615, -16.221445 ], [ -47.30111, -16.220006 ], [ -47.303434, -16.216197 ], [ -47.303703, -16.214057 ], [ -47.304602, -16.213522 ], [ -47.316179, -16.212746 ], [ -47.317571, -16.211264 ], [ -47.3225776, -16.2091494 ], [ -47.325821, -16.2113688 ], [ -47.3277289, -16.2105147 ], [ -47.3296603, -16.2117044 ], [ -47.3292627, -16.212506 ], [ -47.3297701, -16.2132478 ], [ -47.3289637, -16.2141822 ], [ -47.3301914, -16.2143472 ], [ -47.3296872, -16.2156729 ], [ -47.3301058, -16.2165486 ], [ -47.328571, -16.2177154 ], [ -47.3284577, -16.2219779 ], [ -47.3249232, -16.2234433 ], [ -47.3233591, -16.2255544 ], [ -47.3238341, -16.2283368 ], [ -47.3219811, -16.2314256 ], [ -47.3229317, -16.2328682 ], [ -47.3249133, -16.2342026 ], [ -47.3244699, -16.235066 ], [ -47.3250066, -16.2357194 ], [ -47.3245399, -16.2359528 ], [ -47.3250533, -16.2391498 ], [ -47.3268268, -16.2410634 ], [ -47.3260101, -16.2426035 ], [ -47.3269601, -16.2437343 ], [ -47.3286877, -16.243711 ], [ -47.3273777, -16.2459333 ], [ -47.3278213, -16.2473107 ], [ -47.3271443, -16.2485246 ], [ -47.3274011, -16.2493417 ], [ -47.3292921, -16.2502288 ], [ -47.3308562, -16.2491316 ], [ -47.3338211, -16.2484779 ], [ -47.334965, -16.2508825 ], [ -47.3348483, -16.2528435 ], [ -47.3353852, -16.2534739 ], [ -47.3341713, -16.2564154 ], [ -47.334288, -16.2585865 ], [ -47.336856, -16.2601974 ], [ -47.3396155, -16.2642629 ], [ -47.3439344, -16.2650099 ], [ -47.3444247, -16.2669476 ], [ -47.3469927, -16.2681149 ], [ -47.347016, -16.2693055 ], [ -47.3518263, -16.2759037 ], [ -47.3511998, -16.2785188 ], [ -47.3492385, -16.280235 ], [ -47.3476379, -16.2868573 ], [ -47.3493475, -16.289415 ], [ -47.3543651, -16.2926027 ], [ -47.3554891, -16.2942185 ], [ -47.355372, -16.2962323 ], [ -47.3540138, -16.2986442 ], [ -47.3524449, -16.3037959 ], [ -47.3527025, -16.3074255 ], [ -47.3542714, -16.3094628 ], [ -47.3547397, -16.3090881 ], [ -47.3552081, -16.3110786 ], [ -47.3562384, -16.3119216 ], [ -47.3568472, -16.3139822 ], [ -47.3592592, -16.3152467 ], [ -47.359025, -16.3163473 ], [ -47.3599148, -16.3176587 ], [ -47.3609928, -16.3229029 ], [ -47.3619763, -16.3227156 ], [ -47.3628193, -16.3233478 ], [ -47.3635452, -16.3247763 ], [ -47.3635218, -16.3263452 ], [ -47.3641775, -16.3261579 ], [ -47.3651141, -16.3271882 ], [ -47.3664255, -16.3275629 ], [ -47.3654888, -16.3298811 ], [ -47.3685798, -16.3315203 ], [ -47.3694462, -16.3329721 ], [ -47.3705234, -16.3330892 ], [ -47.3716943, -16.3346816 ], [ -47.3722797, -16.3346347 ], [ -47.3732398, -16.335829 ], [ -47.3754644, -16.3369296 ], [ -47.3746213, -16.3387093 ], [ -47.3768694, -16.340044 ], [ -47.378368, -16.3427135 ], [ -47.3793281, -16.3433692 ], [ -47.3802648, -16.3475374 ], [ -47.3815996, -16.3482633 ], [ -47.3828172, -16.3506518 ], [ -47.3844798, -16.35201 ], [ -47.3857443, -16.351448 ], [ -47.3875708, -16.3547966 ], [ -47.3897486, -16.3564124 ], [ -47.3931206, -16.3605103 ], [ -47.3954857, -16.36229 ], [ -47.3977806, -16.3684018 ], [ -47.4004735, -16.3716099 ], [ -47.4024639, -16.3728275 ], [ -47.4031664, -16.3747711 ], [ -47.4030493, -16.3759185 ], [ -47.4068663, -16.3768084 ], [ -47.4074751, -16.3777216 ], [ -47.4118653, -16.3803396 ], [ -47.4147109, -16.3804146 ], [ -47.4168481, -16.3823405 ], [ -47.417347, -16.380936 ], [ -47.4184107, -16.3811873 ], [ -47.4180829, -16.3822177 ], [ -47.4194072, -16.3824063 ], [ -47.4201416, -16.3831948 ], [ -47.4199154, -16.3843006 ], [ -47.4189025, -16.3845359 ], [ -47.4199729, -16.3853721 ], [ -47.4201834, -16.3916596 ], [ -47.4212213, -16.391689 ], [ -47.4209632, -16.3908585 ], [ -47.4214414, -16.3903607 ], [ -47.4228303, -16.3914707 ], [ -47.4227056, -16.3922603 ], [ -47.4239839, -16.3917483 ], [ -47.4249667, -16.3934443 ], [ -47.4266095, -16.3932499 ], [ -47.426975, -16.3942505 ], [ -47.4262788, -16.3948861 ], [ -47.4265585, -16.3961017 ], [ -47.4253655, -16.3969468 ], [ -47.4270515, -16.3982816 ], [ -47.4271686, -16.3989138 ], [ -47.4251598, -16.4007064 ], [ -47.4251782, -16.401958 ], [ -47.4235624, -16.4027542 ], [ -47.4238669, -16.4034099 ], [ -47.4247099, -16.4035269 ], [ -47.4241947, -16.4043465 ], [ -47.4248158, -16.4052663 ], [ -47.4234375, -16.4060781 ], [ -47.4243891, -16.4075447 ], [ -47.4233613, -16.4085215 ], [ -47.4238585, -16.4095024 ], [ -47.4235859, -16.4121209 ], [ -47.4226726, -16.4120975 ], [ -47.4225087, -16.412519 ], [ -47.4236561, -16.4133854 ], [ -47.4242884, -16.4129171 ], [ -47.4248547, -16.4138789 ], [ -47.424525, -16.4151682 ], [ -47.4233077, -16.4151682 ], [ -47.4231936, -16.4158493 ], [ -47.4242334, -16.4159953 ], [ -47.4244933, -16.4168041 ], [ -47.4240939, -16.4174001 ], [ -47.4250449, -16.4179596 ], [ -47.4247532, -16.4191394 ], [ -47.424208, -16.4193097 ], [ -47.4243665, -16.420228 ], [ -47.4250702, -16.4207875 ], [ -47.4254253, -16.4202462 ], [ -47.4250893, -16.4196624 ], [ -47.4257296, -16.4193036 ], [ -47.4263065, -16.4208422 ], [ -47.4259895, -16.4216085 ], [ -47.426427, -16.4231349 ], [ -47.4251907, -16.4238707 ], [ -47.426427, -16.4252694 ], [ -47.4254443, -16.4268749 ], [ -47.4253682, -16.4280911 ], [ -47.4261797, -16.4281945 ], [ -47.4264777, -16.4295324 ], [ -47.4272639, -16.4296723 ], [ -47.4264016, -16.431229 ], [ -47.427378, -16.4313202 ], [ -47.4275238, -16.433102 ], [ -47.4269215, -16.4340202 ], [ -47.4272132, -16.4345554 ], [ -47.4282466, -16.434604 ], [ -47.4288743, -16.4370121 ], [ -47.4294639, -16.437006 ], [ -47.4294322, -16.4357107 ], [ -47.4297872, -16.4356864 ], [ -47.4319809, -16.4377114 ], [ -47.4310743, -16.4384167 ], [ -47.4324754, -16.4383255 ], [ -47.4327924, -16.4396147 ], [ -47.4336166, -16.4395235 ], [ -47.43271, -16.4408308 ], [ -47.431182, -16.4410193 ], [ -47.4309094, -16.4424909 ], [ -47.430491, -16.4426672 ], [ -47.4304656, -16.4417916 ], [ -47.4300472, -16.4417673 ], [ -47.4291215, -16.4426612 ], [ -47.4311884, -16.4439381 ], [ -47.4340794, -16.4429591 ], [ -47.4341175, -16.4435915 ], [ -47.4354235, -16.4440293 ], [ -47.4361907, -16.4451846 ], [ -47.4369578, -16.4442665 ], [ -47.4375601, -16.4483831 ], [ -47.4385618, -16.4491492 ], [ -47.4393036, -16.4487904 ], [ -47.4394114, -16.450341 ], [ -47.4405716, -16.4502315 ], [ -47.4420362, -16.4508578 ], [ -47.4425751, -16.4498545 ], [ -47.4435134, -16.4506268 ], [ -47.4441664, -16.4494167 ], [ -47.4453393, -16.4494897 ], [ -47.4455232, -16.4501829 ], [ -47.4461699, -16.4501464 ], [ -47.4480402, -16.4523962 ], [ -47.4478817, -16.4528765 ], [ -47.4471906, -16.4528097 ], [ -47.4471399, -16.4541291 ], [ -47.4475393, -16.4542872 ], [ -47.4470765, -16.4550351 ], [ -47.445669, -16.4550776 ], [ -47.4461001, -16.4561235 ], [ -47.4458782, -16.4580874 ], [ -47.4481543, -16.4593764 ], [ -47.4485474, -16.4608174 ], [ -47.4508425, -16.4606654 ], [ -47.4499612, -16.461699 ], [ -47.4500309, -16.4629576 ], [ -47.448484, -16.4628968 ], [ -47.4482748, -16.4642527 ], [ -47.4492701, -16.4635839 ], [ -47.450126, -16.4639487 ], [ -47.4502021, -16.4646783 ], [ -47.4528713, -16.4640581 ], [ -47.4543675, -16.4646114 ], [ -47.4549888, -16.4660463 ], [ -47.4545641, -16.4675055 ], [ -47.4547416, -16.4678581 ], [ -47.4557053, -16.4676392 ], [ -47.4549698, -16.4690437 ], [ -47.4551283, -16.469828 ], [ -47.4560096, -16.4709102 ], [ -47.4543675, -16.470509 ], [ -47.4538159, -16.4720229 ], [ -47.4544753, -16.4735732 ], [ -47.4535306, -16.4739319 ], [ -47.4541646, -16.4746128 ], [ -47.4534672, -16.4753242 ], [ -47.4544499, -16.4758653 ], [ -47.4546782, -16.4749351 ], [ -47.4552044, -16.4760659 ], [ -47.4561047, -16.4756707 ], [ -47.4562632, -16.4773487 ], [ -47.456726, -16.4776588 ], [ -47.4557433, -16.4786497 ], [ -47.4555975, -16.4807168 ], [ -47.4547162, -16.480577 ], [ -47.4545133, -16.4816166 ], [ -47.455794, -16.483027 ], [ -47.4551664, -16.4843523 ], [ -47.4564217, -16.484936 ], [ -47.4575883, -16.4866078 ], [ -47.456986, -16.4868449 ], [ -47.456073, -16.4862917 ], [ -47.4562125, -16.4869118 ], [ -47.455179, -16.4879513 ], [ -47.4558764, -16.4886505 ], [ -47.4550903, -16.4892098 ], [ -47.454843, -16.4887234 ], [ -47.4539871, -16.4888875 ], [ -47.4536511, -16.4900061 ], [ -47.4546782, -16.4897143 ], [ -47.4550522, -16.4909423 ], [ -47.4556482, -16.4904986 ], [ -47.4559335, -16.4912767 ], [ -47.4566753, -16.490991 ], [ -47.4568465, -16.4927783 ], [ -47.4584061, -16.4935017 ], [ -47.4601243, -16.4932464 ], [ -47.4578038, -16.4976355 ], [ -47.4593064, -16.4995443 ], [ -47.4595246, -16.5041259 ], [ -47.4581428, -16.504688 ], [ -47.4567845, -16.5069362 ], [ -47.454911, -16.5072875 ], [ -47.4536932, -16.5082243 ], [ -47.4527096, -16.5095357 ], [ -47.4528713, -16.5125953 ], [ -47.4511975, -16.5131181 ], [ -47.4504557, -16.514814 ], [ -47.4495047, -16.515592 ], [ -47.446005, -16.5173669 ], [ -47.4476471, -16.5201691 ], [ -47.4476154, -16.5216704 ], [ -47.4455485, -16.5222904 ], [ -47.4446736, -16.5238829 ], [ -47.4451681, -16.527311 ], [ -47.4440903, -16.5277121 ], [ -47.4417318, -16.5273353 ], [ -47.4413514, -16.5284293 ], [ -47.4423341, -16.5317054 ], [ -47.443729, -16.5326718 ], [ -47.4430062, -16.5344343 ], [ -47.4445658, -16.5342702 ], [ -47.4445215, -16.5358079 ], [ -47.4454725, -16.5367378 ], [ -47.4442235, -16.5385672 ], [ -47.4437987, -16.5367196 ], [ -47.4417318, -16.5372544 ], [ -47.4442298, -16.5393026 ], [ -47.4422264, -16.5406823 ], [ -47.440318, -16.5401657 ], [ -47.4382258, -16.541989 ], [ -47.4371924, -16.5410469 ], [ -47.4359624, -16.5409619 ], [ -47.4355757, -16.5415635 ], [ -47.4347261, -16.5416608 ], [ -47.4307826, -16.5397585 ], [ -47.4304529, -16.5399894 ], [ -47.4311186, -16.5422929 ], [ -47.4331918, -16.5423415 ], [ -47.4336356, -16.5431194 ], [ -47.4326783, -16.5444808 ], [ -47.4330111, -16.5462843 ], [ -47.4315719, -16.5448014 ], [ -47.4303356, -16.5450749 ], [ -47.4306209, -16.5475788 ], [ -47.4315149, -16.5480954 ], [ -47.4309633, -16.5489766 ], [ -47.4296953, -16.5495661 ], [ -47.429055, -16.5509517 ], [ -47.4282434, -16.5504595 ], [ -47.4276031, -16.5473114 ], [ -47.4270515, -16.5468981 ], [ -47.4233616, -16.5480346 ], [ -47.4214976, -16.5498821 ], [ -47.4144729, -16.5463451 ], [ -47.4132683, -16.5472506 ], [ -47.4125138, -16.5494385 ], [ -47.4122285, -16.5496208 ], [ -47.411398, -16.5483142 ], [ -47.4099778, -16.5492805 ], [ -47.4082787, -16.5530788 ], [ -47.4054637, -16.5552484 ], [ -47.4054003, -16.5566765 ], [ -47.4060723, -16.5578251 ], [ -47.4103836, -16.5565124 ], [ -47.4110429, -16.5567798 ], [ -47.4127928, -16.5593869 ], [ -47.4125582, -16.5603045 ], [ -47.411417, -16.5587488 ], [ -47.4100792, -16.5580378 ], [ -47.4091282, -16.5603106 ], [ -47.4122285, -16.5638292 ], [ -47.4117847, -16.5648987 ], [ -47.4093311, -16.5662417 ], [ -47.4131605, -16.5707872 ], [ -47.4135346, -16.5720876 ], [ -47.4132239, -16.5741719 ], [ -47.4126723, -16.5743785 ], [ -47.4093628, -16.5732239 ], [ -47.4047663, -16.572914 ], [ -47.4021922, -16.5705988 ], [ -47.3991364, -16.5705502 ], [ -47.396911, -16.5710971 ], [ -47.3933796, -16.5745972 ], [ -47.3948949, -16.5763594 ], [ -47.3950914, -16.5775079 ], [ -47.3959156, -16.5776659 ], [ -47.3963531, -16.5783525 ], [ -47.3957952, -16.5802605 ], [ -47.3902857, -16.5829341 ], [ -47.3902603, -16.5840583 ], [ -47.391262, -16.5848603 ], [ -47.3910275, -16.5856563 ], [ -47.3887831, -16.5865678 ], [ -47.3879335, -16.5863126 ], [ -47.3860949, -16.587546 ], [ -47.3853912, -16.5865009 ], [ -47.3864183, -16.58531 ], [ -47.3852897, -16.5835114 ], [ -47.3864436, -16.5801208 ], [ -47.3872615, -16.5790878 ], [ -47.3866402, -16.5777145 ], [ -47.3828615, -16.5777084 ], [ -47.3821895, -16.5766207 ], [ -47.3801797, -16.5777631 ], [ -47.3772696, -16.5785652 ], [ -47.3758684, -16.5835418 ], [ -47.3744293, -16.584915 ], [ -47.3740615, -16.5880564 ], [ -47.3744293, -16.5901041 ], [ -47.3738016, -16.5931968 ], [ -47.3767877, -16.5989507 ], [ -47.3764327, -16.5996798 ], [ -47.3742137, -16.5980515 ], [ -47.3692368, -16.5998378 ], [ -47.3681907, -16.599534 ], [ -47.3654074, -16.5932515 ], [ -47.361857, -16.5913071 ], [ -47.35934, -16.5906935 ], [ -47.3595048, -16.5891015 ], [ -47.3575775, -16.5868898 ], [ -47.3562334, -16.5876372 ], [ -47.3534945, -16.5912039 ], [ -47.3502167, -16.5923887 ], [ -47.3473129, -16.5908332 ], [ -47.3431539, -16.5914104 ], [ -47.342019, -16.5926803 ], [ -47.3421648, -16.5934338 ], [ -47.3446692, -16.5926864 ], [ -47.3455694, -16.5934581 ], [ -47.3453983, -16.5941203 ], [ -47.3428876, -16.596089 ], [ -47.3420063, -16.59745 ], [ -47.3381199, -16.5961983 ], [ -47.3377395, -16.5976565 ], [ -47.339147, -16.6026508 ], [ -47.3348104, -16.6042366 ], [ -47.333834, -16.6079792 ], [ -47.3341701, -16.608933 ], [ -47.3349372, -16.6094373 ], [ -47.3384749, -16.6095041 ], [ -47.3384432, -16.6128395 ], [ -47.3374162, -16.6148079 ], [ -47.336351, -16.6155066 ], [ -47.3340623, -16.6148626 ], [ -47.3289586, -16.6088905 ], [ -47.3269107, -16.6078698 ], [ -47.3240577, -16.6085928 ], [ -47.32272, -16.6079184 ], [ -47.3217246, -16.6071043 ], [ -47.3197909, -16.6021587 ], [ -47.3192964, -16.602019 ], [ -47.3164877, -16.6047834 ], [ -47.3165638, -16.6087447 ], [ -47.3174197, -16.6117703 ], [ -47.3212554, -16.6168735 ], [ -47.3200255, -16.6171166 ], [ -47.3174134, -16.6151178 ], [ -47.3151944, -16.6172502 ], [ -47.3115552, -16.6178881 ], [ -47.3112762, -16.6204215 ], [ -47.3106739, -16.6213692 ], [ -47.3057604, -16.6230034 ], [ -47.3058428, -16.6263082 ], [ -47.3080808, -16.6309373 ], [ -47.3032624, -16.627511 ], [ -47.3011068, -16.6249778 ], [ -47.3001621, -16.6252694 ], [ -47.2987039, -16.6243703 ], [ -47.2955656, -16.6253058 ], [ -47.2974296, -16.6295097 ], [ -47.2956671, -16.6352078 ], [ -47.2938792, -16.6356938 ], [ -47.2912798, -16.6330331 ], [ -47.2879703, -16.6326321 ], [ -47.2875328, -16.6366475 ], [ -47.2844135, -16.6376984 ], [ -47.2838175, -16.6394661 ], [ -47.2842297, -16.6404137 ], [ -47.2877103, -16.6423333 ], [ -47.2880463, -16.6430501 ], [ -47.2855674, -16.6444836 ], [ -47.2828158, -16.6479156 ], [ -47.2819346, -16.6480918 ], [ -47.2792337, -16.6472292 ], [ -47.2789294, -16.6475937 ], [ -47.2794683, -16.6530847 ], [ -47.2775916, -16.6592074 ], [ -47.2742314, -16.6585757 ], [ -47.2737876, -16.6619406 ], [ -47.270719, -16.661564 ], [ -47.2672067, -16.6592438 ], [ -47.2650637, -16.6606165 ], [ -47.2642522, -16.6604707 ], [ -47.2625024, -16.654336 ], [ -47.2608286, -16.653765 ], [ -47.2595733, -16.6544939 ], [ -47.254235, -16.6626087 ], [ -47.254311, -16.6634348 ], [ -47.2553255, -16.6641758 ], [ -47.2569992, -16.6626452 ], [ -47.2576586, -16.662718 ], [ -47.2604355, -16.6652204 ], [ -47.260575, -16.6662651 ], [ -47.2565047, -16.6668603 ], [ -47.2511664, -16.6643944 ], [ -47.2508367, -16.6680994 ], [ -47.2490235, -16.6734198 ], [ -47.2493278, -16.6751204 ], [ -47.2500125, -16.6755212 ], [ -47.253601, -16.6756305 ], [ -47.259028, -16.6771975 ], [ -47.2592182, -16.6790316 ], [ -47.2579629, -16.6850076 ], [ -47.2570753, -16.6855299 ], [ -47.2507226, -16.6846918 ], [ -47.2472736, -16.6812787 ], [ -47.2458788, -16.6835379 ], [ -47.2455238, -16.6925746 ], [ -47.2461895, -16.700457 ], [ -47.2473687, -16.7024488 ], [ -47.2484085, -16.7030074 ], [ -47.2520096, -16.7032503 ], [ -47.2524281, -16.7039426 ], [ -47.249499, -16.7069303 ], [ -47.2483578, -16.7066266 ], [ -47.2429561, -16.7025945 ], [ -47.2421699, -16.7028496 ], [ -47.2408892, -16.705485 ], [ -47.2387463, -16.7072217 ], [ -47.22968, -16.7115452 ], [ -47.2285261, -16.7129297 ], [ -47.2256731, -16.7204841 ], [ -47.222086, -16.722067 ], [ -47.220506, -16.723441 ], [ -47.21801, -16.727134 ], [ -47.215352, -16.72963 ], [ -47.212109, -16.735137 ], [ -47.211105, -16.735754 ], [ -47.209507, -16.735518 ], [ -47.201246, -16.730522 ], [ -47.198085, -16.727383 ], [ -47.189166, -16.720222 ], [ -47.184259, -16.712363 ], [ -47.180265, -16.70867 ], [ -47.160609, -16.696362 ], [ -47.153831, -16.691231 ], [ -47.150908, -16.688552 ], [ -47.149604, -16.686662 ], [ -47.145215, -16.675331 ], [ -47.14286, -16.673666 ], [ -47.138609, -16.669419 ], [ -47.131499, -16.66417 ], [ -47.123644, -16.660367 ], [ -47.121307, -16.660036 ], [ -47.116688, -16.658201 ], [ -47.113264, -16.655749 ], [ -47.109932, -16.654103 ], [ -47.096881, -16.649518 ], [ -47.095551, -16.648156 ], [ -47.095878, -16.644501 ], [ -47.095055, -16.641853 ], [ -47.093918, -16.640216 ], [ -47.092038, -16.639173 ], [ -47.087839, -16.639339 ], [ -47.083655, -16.641506 ], [ -47.081867, -16.641406 ], [ -47.07901, -16.640244 ], [ -47.075835, -16.635585 ], [ -47.070842, -16.632344 ], [ -47.068087, -16.629872 ], [ -47.06795, -16.628423 ], [ -47.069457, -16.622405 ], [ -47.068121, -16.617593 ], [ -47.066984, -16.615886 ], [ -47.065413, -16.615144 ], [ -47.060572, -16.615053 ], [ -47.042798, -16.606512 ], [ -47.037104, -16.60529 ], [ -47.033253, -16.602881 ], [ -47.03113, -16.602849 ], [ -47.030233, -16.601028 ], [ -47.027349, -16.600716 ], [ -47.023885, -16.597159 ], [ -47.017256, -16.596944 ], [ -47.015652, -16.59827 ], [ -47.015218, -16.59928 ], [ -47.011436, -16.601976 ], [ -47.004487, -16.603898 ], [ -47.003035, -16.603316 ], [ -47.001767, -16.603977 ], [ -46.999419, -16.603222 ], [ -46.99831, -16.607646 ], [ -46.998452, -16.613097 ], [ -46.996805, -16.616687 ], [ -46.996026, -16.619689 ], [ -46.99632, -16.622613 ], [ -46.99496, -16.624481 ], [ -46.994645, -16.626616 ], [ -46.994592, -16.628731 ], [ -46.995387, -16.629913 ], [ -46.995439, -16.631431 ], [ -46.992121, -16.633413 ], [ -46.99215, -16.634747 ], [ -46.991135, -16.635746 ], [ -46.990675, -16.638063 ], [ -46.990852, -16.639077 ], [ -46.992145, -16.640473 ], [ -46.991366, -16.641612 ], [ -46.991378, -16.642509 ], [ -46.990176, -16.643184 ], [ -46.989919, -16.644606 ], [ -46.988316, -16.646725 ], [ -46.988395, -16.649669 ], [ -46.986995, -16.650916 ], [ -46.985726, -16.651291 ], [ -46.984107, -16.656398 ], [ -46.980051, -16.661728 ], [ -46.979286, -16.663627 ], [ -46.979427, -16.66556 ], [ -46.978044, -16.665497 ], [ -46.975003, -16.666401 ], [ -46.972628, -16.665566 ], [ -46.972079, -16.663881 ], [ -46.967844, -16.663046 ], [ -46.967114, -16.66237 ], [ -46.967091, -16.660507 ], [ -46.965665, -16.660121 ], [ -46.964017, -16.65856 ], [ -46.966242, -16.654541 ], [ -46.966093, -16.651481 ], [ -46.965244, -16.65078 ], [ -46.96418, -16.648307 ], [ -46.961697, -16.646781 ], [ -46.960951, -16.647208 ], [ -46.959978, -16.646851 ], [ -46.959225, -16.649623 ], [ -46.956611, -16.650648 ], [ -46.956209, -16.65039 ], [ -46.956316, -16.647793 ], [ -46.954525, -16.644459 ], [ -46.953544, -16.644654 ], [ -46.951086, -16.648256 ], [ -46.950947, -16.649702 ], [ -46.952375, -16.651652 ], [ -46.951575, -16.654355 ], [ -46.950205, -16.655142 ], [ -46.94827, -16.655348 ], [ -46.947467, -16.654717 ], [ -46.945095, -16.655537 ], [ -46.944868, -16.658156 ], [ -46.943596, -16.658737 ], [ -46.943337, -16.660229 ], [ -46.944638, -16.661004 ], [ -46.946093, -16.661023 ], [ -46.946448, -16.662936 ], [ -46.950262, -16.663145 ], [ -46.951379, -16.665183 ], [ -46.952757, -16.665637 ], [ -46.952598, -16.668509 ], [ -46.951823, -16.669373 ], [ -46.951884, -16.673651 ], [ -46.950051, -16.675145 ], [ -46.949465, -16.674379 ], [ -46.946056, -16.674198 ], [ -46.945203, -16.673727 ], [ -46.944361, -16.674291 ], [ -46.944182, -16.675186 ], [ -46.94549, -16.677157 ], [ -46.947103, -16.67789 ], [ -46.947272, -16.679479 ], [ -46.946657, -16.680805 ], [ -46.948514, -16.682829 ], [ -46.948619, -16.683911 ], [ -46.946012, -16.686108 ], [ -46.945311, -16.688536 ], [ -46.946229, -16.689468 ], [ -46.942759, -16.690205 ], [ -46.941034, -16.694253 ], [ -46.940496, -16.693419 ], [ -46.939563, -16.693637 ], [ -46.936873, -16.696661 ], [ -46.934827, -16.697991 ], [ -46.935367, -16.70039 ], [ -46.936268, -16.700769 ], [ -46.934714, -16.706199 ], [ -46.935478, -16.707933 ], [ -46.934834, -16.709626 ], [ -46.936936, -16.711217 ], [ -46.937686, -16.713963 ], [ -46.935601, -16.718052 ], [ -46.934175, -16.71939 ], [ -46.936067, -16.722381 ], [ -46.935856, -16.723873 ], [ -46.936643, -16.723906 ], [ -46.937226, -16.724833 ], [ -46.937139, -16.725958 ], [ -46.93621, -16.725901 ], [ -46.935866, -16.728311 ], [ -46.93793, -16.730935 ], [ -46.938396, -16.731769 ], [ -46.938146, -16.73264 ], [ -46.938808, -16.733085 ], [ -46.938932, -16.734489 ], [ -46.936566, -16.736436 ], [ -46.937226, -16.737043 ], [ -46.936427, -16.737906 ], [ -46.937615, -16.741761 ], [ -46.938523, -16.741681 ], [ -46.939059, -16.742584 ], [ -46.940633, -16.742696 ], [ -46.941361, -16.743533 ], [ -46.942796, -16.743345 ], [ -46.944602, -16.743896 ], [ -46.944733, -16.744772 ], [ -46.944174, -16.745501 ], [ -46.944867, -16.747165 ], [ -46.945626, -16.747565 ], [ -46.945513, -16.748806 ], [ -46.946446, -16.748634 ], [ -46.947667, -16.750121 ], [ -46.946696, -16.753052 ], [ -46.946491, -16.755877 ], [ -46.943798, -16.757338 ], [ -46.942561, -16.758794 ], [ -46.941227, -16.762065 ], [ -46.942441, -16.76231 ], [ -46.941, -16.764752 ], [ -46.942513, -16.765783 ], [ -46.942476, -16.766771 ], [ -46.943108, -16.76763 ], [ -46.941998, -16.768536 ], [ -46.941454, -16.771679 ], [ -46.941114, -16.772112 ], [ -46.938867, -16.772382 ], [ -46.937599, -16.770848 ], [ -46.936671, -16.770607 ], [ -46.934534, -16.771568 ], [ -46.93404, -16.774505 ], [ -46.934578, -16.775317 ], [ -46.931551, -16.77675 ], [ -46.930828, -16.775499 ], [ -46.930256, -16.775446 ], [ -46.928754, -16.778784 ], [ -46.926952, -16.779681 ], [ -46.926334, -16.78119 ], [ -46.924177, -16.781876 ], [ -46.923931, -16.782355 ], [ -46.924614, -16.783031 ], [ -46.925154, -16.785406 ], [ -46.927313, -16.786422 ], [ -46.927326, -16.788929 ], [ -46.926034, -16.789165 ], [ -46.924965, -16.790485 ], [ -46.924959, -16.790968 ], [ -46.925837, -16.791347 ], [ -46.925064, -16.792004 ], [ -46.924924, -16.793497 ], [ -46.923954, -16.794588 ], [ -46.923388, -16.799295 ], [ -46.922067, -16.799876 ], [ -46.921642, -16.801273 ], [ -46.91944, -16.803429 ], [ -46.918119, -16.80401 ], [ -46.915998, -16.803776 ], [ -46.914345, -16.80594 ], [ -46.914514, -16.80923 ], [ -46.913935, -16.81143 ], [ -46.914345, -16.812884 ], [ -46.91517, -16.813607 ], [ -46.916314, -16.81376 ], [ -46.917175, -16.81538 ], [ -46.919009, -16.815726 ], [ -46.920129, -16.817557 ], [ -46.921719, -16.818267 ], [ -46.922281, -16.819079 ], [ -46.922409, -16.820184 ], [ -46.921087, -16.820834 ], [ -46.920812, -16.821727 ], [ -46.918288, -16.821281 ], [ -46.916965, -16.821977 ], [ -46.916579, -16.823996 ], [ -46.915511, -16.825247 ], [ -46.913991, -16.829872 ], [ -46.914049, -16.830907 ], [ -46.916881, -16.833266 ], [ -46.918363, -16.833124 ], [ -46.916647, -16.834689 ], [ -46.916752, -16.835679 ], [ -46.917824, -16.835922 ], [ -46.919516, -16.83438 ], [ -46.919567, -16.835853 ], [ -46.920107, -16.836572 ], [ -46.919748, -16.838384 ], [ -46.920686, -16.839569 ], [ -46.920762, -16.840995 ], [ -46.919676, -16.841855 ], [ -46.919386, -16.843829 ], [ -46.918366, -16.845081 ], [ -46.917115, -16.845778 ], [ -46.916139, -16.845535 ], [ -46.915078, -16.846349 ], [ -46.91425, -16.847489 ], [ -46.914408, -16.849859 ], [ -46.913062, -16.850532 ], [ -46.911364, -16.852487 ], [ -46.910449, -16.853028 ], [ -46.909631, -16.849959 ], [ -46.909179, -16.849861 ], [ -46.908176, -16.851573 ], [ -46.908234, -16.852608 ], [ -46.907778, -16.852741 ], [ -46.906502, -16.851758 ], [ -46.904424, -16.851824 ], [ -46.904734, -16.853598 ], [ -46.904196, -16.854534 ], [ -46.906188, -16.855479 ], [ -46.90632, -16.856309 ], [ -46.90278, -16.858448 ], [ -46.901707, -16.858365 ], [ -46.901074, -16.857529 ], [ -46.899464, -16.858268 ], [ -46.896917, -16.862811 ], [ -46.894799, -16.864025 ], [ -46.892706, -16.868597 ], [ -46.890727, -16.868388 ], [ -46.889139, -16.867494 ], [ -46.888252, -16.867781 ], [ -46.889201, -16.86823 ], [ -46.888759, -16.869052 ], [ -46.886769, -16.869624 ], [ -46.885545, -16.86839 ], [ -46.886176, -16.867639 ], [ -46.885829, -16.86683 ], [ -46.884346, -16.866995 ], [ -46.883448, -16.866339 ], [ -46.88185, -16.866158 ], [ -46.880888, -16.866651 ], [ -46.880443, -16.867749 ], [ -46.881798, -16.869882 ], [ -46.881016, -16.87116 ], [ -46.882721, -16.87224 ], [ -46.882534, -16.873686 ], [ -46.881102, -16.873621 ], [ -46.880709, -16.872651 ], [ -46.878674, -16.872992 ], [ -46.878448, -16.872069 ], [ -46.876299, -16.872088 ], [ -46.875456, -16.872583 ], [ -46.875167, -16.874487 ], [ -46.872842, -16.875055 ], [ -46.871891, -16.874767 ], [ -46.872248, -16.873185 ], [ -46.871202, -16.871079 ], [ -46.86876, -16.874956 ], [ -46.868753, -16.878888 ], [ -46.865043, -16.879484 ], [ -46.86543, -16.8808 ], [ -46.863455, -16.882039 ], [ -46.861377, -16.882012 ], [ -46.860511, -16.882483 ], [ -46.859333, -16.884699 ], [ -46.857569, -16.886193 ], [ -46.859685, -16.888589 ], [ -46.859766, -16.889602 ], [ -46.857645, -16.891 ], [ -46.857073, -16.894258 ], [ -46.853505, -16.894947 ], [ -46.853382, -16.8969 ], [ -46.852357, -16.898427 ], [ -46.852637, -16.900593 ], [ -46.852038, -16.90247 ], [ -46.852959, -16.903218 ], [ -46.854631, -16.903217 ], [ -46.855192, -16.904052 ], [ -46.855232, -16.904627 ], [ -46.854267, -16.905282 ], [ -46.854325, -16.906271 ], [ -46.854033, -16.906635 ], [ -46.853252, -16.906165 ], [ -46.851338, -16.90637 ], [ -46.850226, -16.907322 ], [ -46.84991, -16.907708 ], [ -46.850636, -16.910431 ], [ -46.850202, -16.910702 ], [ -46.849078, -16.9091 ], [ -46.847595, -16.909219 ], [ -46.845112, -16.91259 ], [ -46.845248, -16.913051 ], [ -46.846615, -16.912678 ], [ -46.846067, -16.914258 ], [ -46.84641, -16.917091 ], [ -46.844046, -16.918692 ], [ -46.843067, -16.918657 ], [ -46.841285, -16.919714 ], [ -46.840314, -16.920782 ], [ -46.838932, -16.920534 ], [ -46.837264, -16.921915 ], [ -46.837189, -16.920465 ], [ -46.836006, -16.919691 ], [ -46.836033, -16.91776 ], [ -46.833951, -16.91633 ], [ -46.832449, -16.91447 ], [ -46.834446, -16.915094 ], [ -46.834769, -16.914225 ], [ -46.833218, -16.910755 ], [ -46.8316, -16.910274 ], [ -46.83214, -16.907614 ], [ -46.829981, -16.904849 ], [ -46.832024, -16.900599 ], [ -46.831616, -16.899076 ], [ -46.830639, -16.898879 ], [ -46.829887, -16.897995 ], [ -46.830908, -16.89679 ], [ -46.831064, -16.894171 ], [ -46.830759, -16.893822 ], [ -46.828831, -16.894992 ], [ -46.827964, -16.893831 ], [ -46.824223, -16.893207 ], [ -46.823149, -16.891445 ], [ -46.82151, -16.892527 ], [ -46.820123, -16.89267 ], [ -46.819671, -16.892526 ], [ -46.819588, -16.891628 ], [ -46.817894, -16.891537 ], [ -46.818903, -16.889388 ], [ -46.818924, -16.88794 ], [ -46.817523, -16.88737 ], [ -46.816105, -16.887972 ], [ -46.81508, -16.887843 ], [ -46.814124, -16.886198 ], [ -46.81257, -16.886292 ], [ -46.812219, -16.885851 ], [ -46.812857, -16.884595 ], [ -46.812831, -16.8831 ], [ -46.811078, -16.882065 ], [ -46.811266, -16.880664 ], [ -46.809841, -16.878415 ], [ -46.806907, -16.87649 ], [ -46.804976, -16.876235 ], [ -46.805327, -16.875113 ], [ -46.804973, -16.874809 ], [ -46.801289, -16.875174 ], [ -46.797017, -16.8733 ], [ -46.793813, -16.87358 ], [ -46.790932, -16.871357 ], [ -46.787954, -16.870834 ], [ -46.787492, -16.869747 ], [ -46.787648, -16.867197 ], [ -46.787101, -16.867005 ], [ -46.785755, -16.867654 ], [ -46.783206, -16.870518 ], [ -46.782779, -16.870328 ], [ -46.783005, -16.869503 ], [ -46.782541, -16.8686 ], [ -46.783487, -16.867578 ], [ -46.782935, -16.864466 ], [ -46.781534, -16.863918 ], [ -46.780572, -16.862733 ], [ -46.773888, -16.862551 ], [ -46.772625, -16.863983 ], [ -46.769363, -16.860007 ], [ -46.769018, -16.860784 ], [ -46.768105, -16.861139 ], [ -46.76284, -16.858608 ], [ -46.761925, -16.860734 ], [ -46.756272, -16.865211 ], [ -46.7546, -16.865234 ], [ -46.754, -16.863777 ], [ -46.753475, -16.86377 ], [ -46.751828, -16.865335 ], [ -46.749877, -16.864825 ], [ -46.748381, -16.865886 ], [ -46.74755, -16.86553 ], [ -46.747203, -16.864743 ], [ -46.744216, -16.864864 ], [ -46.740844, -16.863599 ], [ -46.740311, -16.857567 ], [ -46.733152, -16.857216 ], [ -46.731585, -16.856574 ], [ -46.731696, -16.855518 ], [ -46.732864, -16.854062 ], [ -46.734725, -16.854202 ], [ -46.734953, -16.853262 ], [ -46.736734, -16.852367 ], [ -46.738736, -16.852624 ], [ -46.739643, -16.851027 ], [ -46.739685, -16.849808 ], [ -46.738431, -16.8474 ], [ -46.735164, -16.843791 ], [ -46.733253, -16.84388 ], [ -46.732235, -16.843291 ], [ -46.732163, -16.84168 ], [ -46.731411, -16.840865 ], [ -46.731651, -16.837488 ], [ -46.727019, -16.837471 ], [ -46.724212, -16.838398 ], [ -46.723302, -16.841743 ], [ -46.7228, -16.841828 ], [ -46.719228, -16.841112 ], [ -46.717941, -16.839324 ], [ -46.715461, -16.839106 ], [ -46.716307, -16.835208 ], [ -46.715666, -16.833359 ], [ -46.714208, -16.831822 ], [ -46.713086, -16.831783 ], [ -46.710311, -16.828962 ], [ -46.710738, -16.827543 ], [ -46.708797, -16.826389 ], [ -46.71013, -16.825051 ], [ -46.708801, -16.82448 ], [ -46.708437, -16.823302 ], [ -46.707024, -16.821972 ], [ -46.706025, -16.821682 ], [ -46.705705, -16.820712 ], [ -46.706209, -16.820558 ], [ -46.705169, -16.819831 ], [ -46.703757, -16.820087 ], [ -46.701911, -16.817394 ], [ -46.700352, -16.817833 ], [ -46.700148, -16.818704 ], [ -46.699266, -16.818576 ], [ -46.698687, -16.815786 ], [ -46.695977, -16.813403 ], [ -46.693575, -16.809552 ], [ -46.69287, -16.808783 ], [ -46.689619, -16.807496 ], [ -46.688304, -16.806029 ], [ -46.68794, -16.801632 ], [ -46.687308, -16.800772 ], [ -46.684838, -16.79991 ], [ -46.683858, -16.798355 ], [ -46.682702, -16.799075 ], [ -46.681282, -16.798205 ], [ -46.679535, -16.798525 ], [ -46.679181, -16.798244 ], [ -46.680302, -16.796673 ], [ -46.678863, -16.795526 ], [ -46.678092, -16.796044 ], [ -46.677388, -16.795184 ], [ -46.674357, -16.795118 ], [ -46.673922, -16.797044 ], [ -46.673094, -16.79655 ], [ -46.671349, -16.796732 ], [ -46.670858, -16.796035 ], [ -46.668967, -16.796354 ], [ -46.667838, -16.798362 ], [ -46.667429, -16.798586 ], [ -46.666819, -16.797888 ], [ -46.665103, -16.799266 ], [ -46.664028, -16.799274 ], [ -46.661839, -16.79722 ], [ -46.659821, -16.796502 ], [ -46.659377, -16.797392 ], [ -46.658733, -16.797383 ], [ -46.656243, -16.794658 ], [ -46.655216, -16.794689 ], [ -46.654345, -16.793918 ], [ -46.653168, -16.794384 ], [ -46.652461, -16.793731 ], [ -46.651102, -16.795206 ], [ -46.651166, -16.79569 ], [ -46.652873, -16.796519 ], [ -46.652125, -16.797038 ], [ -46.652634, -16.79808 ], [ -46.652247, -16.798419 ], [ -46.650193, -16.798482 ], [ -46.649413, -16.797965 ], [ -46.647332, -16.798235 ], [ -46.647989, -16.800567 ], [ -46.645812, -16.802376 ], [ -46.645129, -16.801791 ], [ -46.642138, -16.802186 ], [ -46.643621, -16.805197 ], [ -46.643088, -16.807236 ], [ -46.643338, -16.808091 ], [ -46.640672, -16.810698 ], [ -46.641954, -16.812717 ], [ -46.640151, -16.813519 ], [ -46.640177, -16.814991 ], [ -46.637687, -16.816957 ], [ -46.636928, -16.818211 ], [ -46.637539, -16.820427 ], [ -46.636955, -16.821132 ], [ -46.638171, -16.822805 ], [ -46.636425, -16.824574 ], [ -46.63545, -16.827435 ], [ -46.634878, -16.827381 ], [ -46.634158, -16.826083 ], [ -46.632586, -16.827326 ], [ -46.631983, -16.826167 ], [ -46.631004, -16.826199 ], [ -46.629677, -16.8271 ], [ -46.628901, -16.829412 ], [ -46.626575, -16.831587 ], [ -46.626608, -16.832553 ], [ -46.627665, -16.833718 ], [ -46.6273, -16.834173 ], [ -46.626438, -16.834299 ], [ -46.625017, -16.833543 ], [ -46.623596, -16.834374 ], [ -46.623483, -16.835476 ], [ -46.622781, -16.836087 ], [ -46.620592, -16.835596 ], [ -46.619772, -16.836113 ], [ -46.619638, -16.8371 ], [ -46.618785, -16.836628 ], [ -46.618335, -16.837956 ], [ -46.616824, -16.838394 ], [ -46.616207, -16.839673 ], [ -46.614313, -16.840129 ], [ -46.612902, -16.841834 ], [ -46.612377, -16.84339 ], [ -46.611227, -16.842086 ], [ -46.610677, -16.843642 ], [ -46.609784, -16.84425 ], [ -46.6087, -16.843315 ], [ -46.60711, -16.844212 ], [ -46.606974, -16.845314 ], [ -46.607726, -16.847648 ], [ -46.606259, -16.84834 ], [ -46.607022, -16.849983 ], [ -46.60577, -16.850586 ], [ -46.606035, -16.852039 ], [ -46.605147, -16.852325 ], [ -46.604774, -16.853263 ], [ -46.605647, -16.855529 ], [ -46.602546, -16.855278 ], [ -46.601322, -16.854088 ], [ -46.597867, -16.855119 ], [ -46.596032, -16.861049 ], [ -46.594168, -16.862679 ], [ -46.596145, -16.863052 ], [ -46.596042, -16.863487 ], [ -46.594493, -16.864799 ], [ -46.594104, -16.866817 ], [ -46.590153, -16.865956 ], [ -46.588713, -16.866372 ], [ -46.587677, -16.868519 ], [ -46.587976, -16.869236 ], [ -46.588905, -16.869388 ], [ -46.588099, -16.870549 ], [ -46.587726, -16.873073 ], [ -46.586195, -16.873212 ], [ -46.584047, -16.869985 ], [ -46.582817, -16.869208 ], [ -46.581882, -16.869448 ], [ -46.581677, -16.870342 ], [ -46.579942, -16.869788 ], [ -46.574395, -16.870191 ], [ -46.571393, -16.872747 ], [ -46.570314, -16.876066 ], [ -46.56706, -16.877997 ], [ -46.566823, -16.879419 ], [ -46.565699, -16.879472 ], [ -46.565394, -16.877582 ], [ -46.563674, -16.877603 ], [ -46.562203, -16.880042 ], [ -46.561962, -16.881695 ], [ -46.561483, -16.881803 ], [ -46.557457, -16.881054 ], [ -46.556406, -16.879567 ], [ -46.555564, -16.879946 ], [ -46.554845, -16.881615 ], [ -46.553683, -16.881046 ], [ -46.553065, -16.882394 ], [ -46.551437, -16.882669 ], [ -46.552891, -16.884346 ], [ -46.552621, -16.884802 ], [ -46.551347, -16.885336 ], [ -46.549622, -16.887196 ], [ -46.548193, -16.8869 ], [ -46.546417, -16.88899 ], [ -46.545074, -16.889315 ], [ -46.54474, -16.887769 ], [ -46.544288, -16.887671 ], [ -46.542784, -16.889075 ], [ -46.541234, -16.88896 ], [ -46.541305, -16.88742 ], [ -46.542106, -16.886673 ], [ -46.541544, -16.885906 ], [ -46.538862, -16.887868 ], [ -46.538983, -16.889273 ], [ -46.537748, -16.888841 ], [ -46.537227, -16.890052 ], [ -46.535533, -16.889935 ], [ -46.534714, -16.888865 ], [ -46.534308, -16.891872 ], [ -46.533329, -16.891835 ], [ -46.532694, -16.891205 ], [ -46.530727, -16.891705 ], [ -46.530422, -16.891356 ], [ -46.531299, -16.888792 ], [ -46.52855, -16.888867 ], [ -46.5265, -16.887135 ], [ -46.525387, -16.888016 ], [ -46.524936, -16.887848 ], [ -46.524709, -16.88704 ], [ -46.525549, -16.885328 ], [ -46.52409, -16.885444 ], [ -46.523298, -16.884122 ], [ -46.522093, -16.883322 ], [ -46.520541, -16.883299 ], [ -46.518665, -16.884077 ], [ -46.517458, -16.883392 ], [ -46.514806, -16.883376 ], [ -46.508186, -16.885073 ], [ -46.505447, -16.884572 ], [ -46.503629, -16.88627 ], [ -46.50275, -16.885958 ], [ -46.50301, -16.884605 ], [ -46.502634, -16.884255 ], [ -46.501168, -16.88628 ], [ -46.500207, -16.886611 ], [ -46.4955, -16.885648 ], [ -46.494881, -16.886319 ], [ -46.495296, -16.888205 ], [ -46.494915, -16.888506 ], [ -46.492801, -16.886488 ], [ -46.491066, -16.889121 ], [ -46.488595, -16.887404 ], [ -46.487715, -16.888466 ], [ -46.487892, -16.890746 ], [ -46.487009, -16.891072 ], [ -46.4859, -16.88928 ], [ -46.484258, -16.891106 ], [ -46.484837, -16.892209 ], [ -46.484626, -16.893177 ], [ -46.482636, -16.892126 ], [ -46.481201, -16.892224 ], [ -46.480558, -16.892848 ], [ -46.482357, -16.894107 ], [ -46.481498, -16.894502 ], [ -46.478985, -16.894144 ], [ -46.478299, -16.895851 ], [ -46.475708, -16.894157 ], [ -46.475704, -16.893259 ], [ -46.476941, -16.89178 ], [ -46.476796, -16.891343 ], [ -46.475767, -16.891278 ], [ -46.474694, -16.892135 ], [ -46.47442, -16.895107 ], [ -46.473612, -16.896284 ], [ -46.472106, -16.896451 ], [ -46.466479, -16.895184 ], [ -46.462856, -16.898215 ], [ -46.461924, -16.89838 ], [ -46.46144, -16.897139 ], [ -46.462721, -16.894577 ], [ -46.462667, -16.893173 ], [ -46.458833, -16.891553 ], [ -46.457421, -16.891512 ], [ -46.457583, -16.895818 ], [ -46.456273, -16.897113 ], [ -46.456518, -16.898494 ], [ -46.455562, -16.89859 ], [ -46.454482, -16.897811 ], [ -46.452927, -16.897771 ], [ -46.451225, -16.897017 ], [ -46.450392, -16.89808 ], [ -46.450736, -16.900267 ], [ -46.450403, -16.900613 ], [ -46.447268, -16.900234 ], [ -46.440052, -16.902288 ], [ -46.437417, -16.901446 ], [ -46.437246, -16.900549 ], [ -46.437841, -16.899787 ], [ -46.437576, -16.899419 ], [ -46.436046, -16.899563 ], [ -46.435853, -16.899149 ], [ -46.43893, -16.897157 ], [ -46.438949, -16.89589 ], [ -46.435982, -16.895648 ], [ -46.429767, -16.896893 ], [ -46.426275, -16.896906 ], [ -46.425876, -16.898681 ], [ -46.425422, -16.898913 ], [ -46.422181, -16.895977 ], [ -46.420442, -16.891861 ], [ -46.417815, -16.892861 ], [ -46.416746, -16.894938 ], [ -46.417281, -16.897032 ], [ -46.414049, -16.896238 ], [ -46.415476, -16.89439 ], [ -46.414852, -16.893771 ], [ -46.413182, -16.89479 ], [ -46.412415, -16.894586 ], [ -46.412483, -16.893618 ], [ -46.413863, -16.891655 ], [ -46.413572, -16.890781 ], [ -46.412639, -16.890647 ], [ -46.408849, -16.894 ], [ -46.408384, -16.89741 ], [ -46.406457, -16.900135 ], [ -46.407086, -16.901975 ], [ -46.406828, -16.903265 ], [ -46.405824, -16.903315 ], [ -46.403188, -16.902173 ], [ -46.399755, -16.899215 ], [ -46.391833, -16.89823 ], [ -46.391191, -16.899177 ], [ -46.391945, -16.908432 ], [ -46.390097, -16.913114 ], [ -46.388039, -16.912868 ], [ -46.385544, -16.91115 ], [ -46.383172, -16.91026 ], [ -46.381091, -16.910291 ], [ -46.380018, -16.911285 ], [ -46.379856, -16.912575 ], [ -46.381516, -16.915079 ], [ -46.379582, -16.916146 ], [ -46.379207, -16.918058 ], [ -46.379784, -16.91877 ], [ -46.381652, -16.919409 ], [ -46.382062, -16.920282 ], [ -46.378303, -16.919559 ], [ -46.378114, -16.920043 ], [ -46.378405, -16.920963 ], [ -46.380729, -16.921876 ], [ -46.382842, -16.923918 ], [ -46.384123, -16.927368 ], [ -46.383674, -16.928798 ], [ -46.382145, -16.929218 ], [ -46.381162, -16.928784 ], [ -46.381577, -16.924637 ], [ -46.380854, -16.923303 ], [ -46.373126, -16.923308 ], [ -46.372621, -16.92255 ], [ -46.372926, -16.920959 ], [ -46.371414, -16.919721 ], [ -46.368926, -16.919845 ], [ -46.365562, -16.922436 ], [ -46.365237, -16.924994 ], [ -46.368209, -16.926365 ], [ -46.369533, -16.928594 ], [ -46.372003, -16.930083 ], [ -46.372152, -16.931349 ], [ -46.370767, -16.932114 ], [ -46.36589, -16.933144 ], [ -46.364461, -16.934807 ], [ -46.363552, -16.935064 ], [ -46.362595, -16.934975 ], [ -46.360624, -16.932448 ], [ -46.359641, -16.932106 ], [ -46.358182, -16.932204 ], [ -46.355818, -16.933432 ], [ -46.354961, -16.934587 ], [ -46.355138, -16.937189 ], [ -46.354092, -16.939012 ], [ -46.354483, -16.94129 ], [ -46.351401, -16.942521 ], [ -46.349928, -16.94529 ], [ -46.347684, -16.946864 ], [ -46.345969, -16.948942 ], [ -46.344431, -16.94699 ], [ -46.343808, -16.946877 ], [ -46.342925, -16.947571 ], [ -46.342809, -16.948562 ], [ -46.344036, -16.950331 ], [ -46.34431, -16.953301 ], [ -46.34222, -16.957476 ], [ -46.340635, -16.962686 ], [ -46.339127, -16.962415 ], [ -46.336384, -16.958371 ], [ -46.332049, -16.957326 ], [ -46.330129, -16.955836 ], [ -46.329911, -16.954938 ], [ -46.332393, -16.953064 ], [ -46.332269, -16.952074 ], [ -46.331766, -16.951892 ], [ -46.325933, -16.953385 ], [ -46.31773, -16.954679 ], [ -46.31544, -16.956759 ], [ -46.314794, -16.95683 ], [ -46.311818, -16.954353 ], [ -46.310621, -16.95408 ], [ -46.306039, -16.950824 ], [ -46.30465, -16.950483 ], [ -46.30348, -16.951385 ], [ -46.30216, -16.957032 ], [ -46.30336, -16.957973 ], [ -46.309253, -16.959773 ], [ -46.309449, -16.961154 ], [ -46.30663, -16.962476 ], [ -46.304712, -16.961423 ], [ -46.302382, -16.959035 ], [ -46.300528, -16.955817 ], [ -46.300158, -16.952432 ], [ -46.301495, -16.951737 ], [ -46.302257, -16.950537 ], [ -46.297918, -16.94834 ], [ -46.296569, -16.945465 ], [ -46.295516, -16.945515 ], [ -46.292251, -16.949578 ], [ -46.290484, -16.950689 ], [ -46.287171, -16.947383 ], [ -46.285281, -16.947343 ], [ -46.283732, -16.949236 ], [ -46.284645, -16.9505 ], [ -46.288529, -16.952653 ], [ -46.295523, -16.95475 ], [ -46.296198, -16.956015 ], [ -46.292782, -16.957707 ], [ -46.283396, -16.95617 ], [ -46.278947, -16.956782 ], [ -46.278687, -16.95775 ], [ -46.280664, -16.96212 ], [ -46.281721, -16.963291 ], [ -46.283181, -16.963586 ], [ -46.282521, -16.966651 ], [ -46.285632, -16.966596 ], [ -46.285993, -16.967101 ], [ -46.284756, -16.969408 ], [ -46.283705, -16.96978 ], [ -46.281832, -16.967966 ], [ -46.278884, -16.966778 ], [ -46.274337, -16.966608 ], [ -46.269299, -16.970239 ], [ -46.267292, -16.971143 ], [ -46.266536, -16.974185 ], [ -46.263335, -16.97613 ], [ -46.262697, -16.978573 ], [ -46.260444, -16.977658 ], [ -46.258774, -16.979068 ], [ -46.258079, -16.97884 ], [ -46.254477, -16.975097 ], [ -46.252846, -16.974088 ], [ -46.251793, -16.974022 ], [ -46.250911, -16.975176 ], [ -46.251882, -16.979503 ], [ -46.249921, -16.979947 ], [ -46.248422, -16.982669 ], [ -46.247488, -16.982441 ], [ -46.246981, -16.981015 ], [ -46.244819, -16.978649 ], [ -46.243763, -16.977731 ], [ -46.242782, -16.977618 ], [ -46.241049, -16.982229 ], [ -46.239282, -16.983478 ], [ -46.237263, -16.983594 ], [ -46.236927, -16.980422 ], [ -46.235796, -16.978467 ], [ -46.231382, -16.975141 ], [ -46.22853, -16.973721 ], [ -46.21992, -16.967803 ], [ -46.215223, -16.965536 ], [ -46.209113, -16.963111 ], [ -46.205108, -16.962518 ], [ -46.205658, -16.96015 ], [ -46.206635, -16.958857 ], [ -46.208332, -16.957862 ], [ -46.212782, -16.957528 ], [ -46.213854, -16.955843 ], [ -46.213994, -16.954738 ], [ -46.212337, -16.95283 ], [ -46.208719, -16.95109 ], [ -46.209108, -16.945377 ], [ -46.208217, -16.94333 ], [ -46.205046, -16.939147 ], [ -46.205735, -16.937325 ], [ -46.21057, -16.938003 ], [ -46.212077, -16.9377 ], [ -46.213313, -16.934863 ], [ -46.215481, -16.93184 ], [ -46.215034, -16.926107 ], [ -46.215399, -16.920279 ], [ -46.213804, -16.914733 ], [ -46.214705, -16.912266 ], [ -46.219841, -16.909557 ], [ -46.221709, -16.910104 ], [ -46.220688, -16.912802 ], [ -46.220694, -16.914575 ], [ -46.221878, -16.918533 ], [ -46.224522, -16.922511 ], [ -46.224483, -16.92562 ], [ -46.223159, -16.930875 ], [ -46.2243, -16.936261 ], [ -46.227271, -16.937496 ], [ -46.231627, -16.937875 ], [ -46.232268, -16.936469 ], [ -46.230826, -16.934354 ], [ -46.231468, -16.933062 ], [ -46.239271, -16.933662 ], [ -46.240894, -16.932575 ], [ -46.241748, -16.92997 ], [ -46.241992, -16.923843 ], [ -46.244229, -16.920105 ], [ -46.246834, -16.919177 ], [ -46.249609, -16.919053 ], [ -46.25601, -16.923226 ], [ -46.260202, -16.924665 ], [ -46.262689, -16.924335 ], [ -46.266011, -16.922943 ], [ -46.26871, -16.921668 ], [ -46.269783, -16.920537 ], [ -46.271186, -16.917999 ], [ -46.271014, -16.916433 ], [ -46.269856, -16.913558 ], [ -46.265799, -16.909332 ], [ -46.265511, -16.90148 ], [ -46.264906, -16.899524 ], [ -46.265428, -16.898094 ], [ -46.268887, -16.895159 ], [ -46.271213, -16.889325 ], [ -46.274275, -16.889454 ], [ -46.276554, -16.891405 ], [ -46.276462, -16.892465 ], [ -46.273462, -16.896919 ], [ -46.273469, -16.899014 ], [ -46.275418, -16.902578 ], [ -46.276759, -16.902943 ], [ -46.279382, -16.900125 ], [ -46.281392, -16.900349 ], [ -46.282808, -16.901888 ], [ -46.282647, -16.903823 ], [ -46.27883, -16.907105 ], [ -46.277998, -16.908466 ], [ -46.277839, -16.911185 ], [ -46.278871, -16.91231 ], [ -46.284876, -16.912222 ], [ -46.287641, -16.90922 ], [ -46.292394, -16.906833 ], [ -46.295292, -16.907722 ], [ -46.297213, -16.909858 ], [ -46.298121, -16.909533 ], [ -46.300002, -16.906717 ], [ -46.304739, -16.90684 ], [ -46.306027, -16.905846 ], [ -46.307167, -16.903355 ], [ -46.306495, -16.902781 ], [ -46.301928, -16.903486 ], [ -46.300563, -16.902938 ], [ -46.29989, -16.902065 ], [ -46.298813, -16.894952 ], [ -46.296852, -16.888049 ], [ -46.297061, -16.886183 ], [ -46.298035, -16.884222 ], [ -46.30296, -16.876353 ], [ -46.304765, -16.872478 ], [ -46.30665, -16.871228 ], [ -46.313321, -16.8707 ], [ -46.32056, -16.874846 ], [ -46.324641, -16.879208 ], [ -46.329295, -16.882993 ], [ -46.332765, -16.883327 ], [ -46.335463, -16.881959 ], [ -46.336319, -16.88062 ], [ -46.336125, -16.879746 ], [ -46.329975, -16.879214 ], [ -46.327987, -16.878345 ], [ -46.32348, -16.875527 ], [ -46.321964, -16.872814 ], [ -46.322365, -16.871339 ], [ -46.326226, -16.867434 ], [ -46.327891, -16.864849 ], [ -46.328914, -16.85644 ], [ -46.330813, -16.852472 ], [ -46.332244, -16.851293 ], [ -46.333655, -16.851219 ], [ -46.335138, -16.851329 ], [ -46.341083, -16.855087 ], [ -46.34133, -16.857412 ], [ -46.343734, -16.860812 ], [ -46.344155, -16.864588 ], [ -46.345933, -16.866977 ], [ -46.346356, -16.871398 ], [ -46.347102, -16.872731 ], [ -46.350962, -16.875274 ], [ -46.354598, -16.875308 ], [ -46.356075, -16.87353 ], [ -46.356903, -16.871085 ], [ -46.357879, -16.869977 ], [ -46.360434, -16.868701 ], [ -46.360979, -16.867318 ], [ -46.360398, -16.865362 ], [ -46.359221, -16.864145 ], [ -46.354673, -16.863148 ], [ -46.351511, -16.861661 ], [ -46.350403, -16.859754 ], [ -46.349864, -16.856278 ], [ -46.352415, -16.853989 ], [ -46.35296, -16.852605 ], [ -46.352714, -16.850672 ], [ -46.350305, -16.845797 ], [ -46.350586, -16.844369 ], [ -46.354368, -16.845116 ], [ -46.36347, -16.848931 ], [ -46.366435, -16.848897 ], [ -46.367414, -16.848364 ], [ -46.368841, -16.846448 ], [ -46.368594, -16.844353 ], [ -46.362261, -16.845572 ], [ -46.360817, -16.843136 ], [ -46.357343, -16.841237 ], [ -46.356669, -16.839972 ], [ -46.357309, -16.838611 ], [ -46.359096, -16.836832 ], [ -46.360494, -16.833372 ], [ -46.363092, -16.83106 ], [ -46.366549, -16.834434 ], [ -46.36708, -16.835975 ], [ -46.369508, -16.839375 ], [ -46.372239, -16.840586 ], [ -46.375635, -16.840459 ], [ -46.375727, -16.839699 ], [ -46.373162, -16.838027 ], [ -46.372895, -16.837037 ], [ -46.373439, -16.835377 ], [ -46.375605, -16.832675 ], [ -46.375431, -16.830741 ], [ -46.374156, -16.828719 ], [ -46.375132, -16.827587 ], [ -46.377691, -16.827716 ], [ -46.383558, -16.830045 ], [ -46.391155, -16.834232 ], [ -46.393785, -16.834177 ], [ -46.396843, -16.833314 ], [ -46.397462, -16.832551 ], [ -46.397333, -16.830088 ], [ -46.392668, -16.823472 ], [ -46.390235, -16.81892 ], [ -46.390361, -16.814245 ], [ -46.390972, -16.811663 ], [ -46.391426, -16.811477 ], [ -46.394606, -16.811489 ], [ -46.397527, -16.812538 ], [ -46.39963, -16.812139 ], [ -46.400295, -16.810893 ], [ -46.3999544, -16.8080342 ] ] ] } }
]
}
