{
"type": "FeatureCollection",
"name": "urbano-utm",
"features": [
{ "type": "Feature", "properties": { }, "geometry": { "type": "Polygon", "coordinates": [ [ [ -46.8404649, -16.0388227 ], [ -46.8383499, -16.0414001 ], [ -46.8355198, -16.0390282 ], [ -46.8362562, -16.0382232 ], [ -46.8371977, -16.0390336 ], [ -46.8385597, -16.0373798 ], [ -46.8404649, -16.0388227 ] ] ] } },
{ "type": "Feature", "properties": { }, "geometry": { "type": "Polygon", "coordinates": [ [ [ -46.7383709, -16.0504817 ], [ -46.7379954, -16.0506567 ], [ -46.7370492, -16.0496371 ], [ -46.7373409, -16.0492227 ], [ -46.7371446, -16.0489702 ], [ -46.7382506, -16.0481128 ], [ -46.7377029, -16.0473839 ], [ -46.7386897, -16.0464684 ], [ -46.7389171, -16.0466638 ], [ -46.7386644, -16.047114 ], [ -46.7398966, -16.0481471 ], [ -46.7392525, -16.0486694 ], [ -46.7398412, -16.0494872 ], [ -46.7395115, -16.0496777 ], [ -46.739351, -16.0494829 ], [ -46.7382549, -16.0503306 ], [ -46.7383709, -16.0504817 ] ] ] } },
{ "type": "Feature", "properties": { }, "geometry": { "type": "Polygon", "coordinates": [ [ [ -46.5618069, -16.0813258 ], [ -46.5634167, -16.0828671 ], [ -46.5614686, -16.0848238 ], [ -46.5606894, -16.0843185 ], [ -46.5595505, -16.0853632 ], [ -46.5590453, -16.084781 ], [ -46.5601756, -16.0837962 ], [ -46.5596875, -16.0832653 ], [ -46.5618069, -16.0813258 ] ] ] } },
{ "type": "Feature", "properties": { }, "geometry": { "type": "Polygon", "coordinates": [ [ [ -46.557234, -16.0890125 ], [ -46.5562622, -16.093404 ], [ -46.5544256, -16.0929051 ], [ -46.5547852, -16.092021 ], [ -46.5523019, -16.0902998 ], [ -46.5536806, -16.0882061 ], [ -46.5551106, -16.089405 ], [ -46.5562512, -16.0883501 ], [ -46.5570169, -16.0891685 ], [ -46.557234, -16.0890125 ] ] ] } },
{ "type": "Feature", "properties": { }, "geometry": { "type": "Polygon", "coordinates": [ [ [ -46.5535564, -16.0884373 ], [ -46.5529557, -16.0878608 ], [ -46.5604196, -16.081968 ], [ -46.5607921, -16.082302 ], [ -46.5596875, -16.0832653 ], [ -46.5601756, -16.0837962 ], [ -46.5590453, -16.084781 ], [ -46.5595505, -16.0853632 ], [ -46.5606894, -16.0843185 ], [ -46.5614686, -16.0848238 ], [ -46.5622052, -16.0855642 ], [ -46.5613616, -16.0863351 ], [ -46.5611175, -16.0860611 ], [ -46.5605395, -16.0862452 ], [ -46.5593065, -16.0874269 ], [ -46.5577613, -16.0870096 ], [ -46.5572788, -16.0874299 ], [ -46.557234, -16.0890125 ], [ -46.5570169, -16.0891685 ], [ -46.5562512, -16.0883501 ], [ -46.5551106, -16.089405 ], [ -46.5536806, -16.0882061 ], [ -46.5535564, -16.0884373 ] ] ] } },
{ "type": "Feature", "properties": { }, "geometry": { "type": "Polygon", "coordinates": [ [ [ -46.9594859, -16.1574151 ], [ -46.9600511, -16.1583442 ], [ -46.960294, -16.1582435 ], [ -46.9606496, -16.1589694 ], [ -46.9586265, -16.1594992 ], [ -46.9577485, -16.1599641 ], [ -46.9571951, -16.1595288 ], [ -46.9567598, -16.1596689 ], [ -46.9561548, -16.1595804 ], [ -46.9556353, -16.1589959 ], [ -46.9564546, -16.1582842 ], [ -46.9558124, -16.157368 ], [ -46.9560094, -16.1570854 ], [ -46.9558809, -16.1559551 ], [ -46.9563598, -16.1556371 ], [ -46.9573495, -16.1564603 ], [ -46.9581287, -16.1560579 ], [ -46.9594859, -16.1574151 ] ] ] } },
{ "type": "Feature", "properties": { }, "geometry": { "type": "Polygon", "coordinates": [ [ [ -46.423114, -16.2009044 ], [ -46.4237528, -16.201935 ], [ -46.4228073, -16.2033509 ], [ -46.421941, -16.2034183 ], [ -46.4219678, -16.2035725 ], [ -46.4217438, -16.20364 ], [ -46.4216746, -16.2034034 ], [ -46.4212057, -16.2039578 ], [ -46.4211265, -16.2042704 ], [ -46.4208001, -16.2042575 ], [ -46.4203976, -16.2032257 ], [ -46.4203494, -16.2022452 ], [ -46.4207144, -16.2016116 ], [ -46.420176, -16.2012797 ], [ -46.4207668, -16.200025 ], [ -46.4214177, -16.2005943 ], [ -46.4226689, -16.2010421 ], [ -46.423114, -16.2009044 ] ] ] } },
{ "type": "Feature", "properties": { }, "geometry": { "type": "Polygon", "coordinates": [ [ [ -46.901195, -16.2877081 ], [ -46.9012096, -16.2858329 ], [ -46.9037314, -16.2858109 ], [ -46.903948, -16.2869462 ], [ -46.9061313, -16.2915843 ], [ -46.9063335, -16.2926459 ], [ -46.9064846, -16.2946965 ], [ -46.9027124, -16.2949996 ], [ -46.9026789, -16.2934514 ], [ -46.8999617, -16.2934708 ], [ -46.8998383, -16.29033 ], [ -46.900835, -16.2903081 ], [ -46.9008136, -16.2915968 ], [ -46.9014408, -16.2915818 ], [ -46.9014387, -16.2909289 ], [ -46.9026225, -16.2909182 ], [ -46.9026546, -16.2916546 ], [ -46.9033268, -16.2916418 ], [ -46.9031641, -16.2876932 ], [ -46.901195, -16.2877081 ] ] ] } },
{ "type": "Feature", "properties": { }, "geometry": { "type": "Polygon", "coordinates": [ [ [ -46.9007072, -16.2969185 ], [ -46.9006445, -16.29598 ], [ -46.8998481, -16.2959586 ], [ -46.8998524, -16.2952393 ], [ -46.9064846, -16.2946965 ], [ -46.9066021, -16.2964372 ], [ -46.9007072, -16.2969185 ] ] ] } },
{ "type": "Feature", "properties": { }, "geometry": { "type": "Polygon", "coordinates": [ [ [ -46.9026106, -16.3057629 ], [ -46.8981581, -16.3039978 ], [ -46.8985779, -16.3014413 ], [ -46.9004944, -16.3014108 ], [ -46.9002725, -16.2969739 ], [ -46.9028303, -16.2967317 ], [ -46.902964, -16.2985125 ], [ -46.9020991, -16.298581 ], [ -46.9021864, -16.2994935 ], [ -46.903039, -16.2994279 ], [ -46.903315, -16.3030509 ], [ -46.9024587, -16.3031023 ], [ -46.9026106, -16.3057629 ] ] ] } },
{ "type": "Feature", "properties": { }, "geometry": { "type": "Polygon", "coordinates": [ [ [ -46.8983031, -16.2909812 ], [ -46.898271, -16.2897142 ], [ -46.8998244, -16.2896809 ], [ -46.8998406, -16.2909373 ], [ -46.8983031, -16.2909812 ] ] ] } },
{ "type": "Feature", "properties": { }, "geometry": { "type": "Polygon", "coordinates": [ [ [ -46.8998383, -16.29033 ], [ -46.8998291, -16.2890586 ], [ -46.9012, -16.2890072 ], [ -46.901195, -16.2877081 ], [ -46.9031641, -16.2876932 ], [ -46.9033268, -16.2916418 ], [ -46.9026546, -16.2916546 ], [ -46.9026225, -16.2909182 ], [ -46.9014387, -16.2909289 ], [ -46.9014408, -16.2915818 ], [ -46.9008136, -16.2915968 ], [ -46.900835, -16.2903081 ], [ -46.8998383, -16.29033 ] ] ] } },
{ "type": "Feature", "properties": { }, "geometry": { "type": "Polygon", "coordinates": [ [ [ -46.9028303, -16.2967317 ], [ -46.9066021, -16.2964372 ], [ -46.9074496, -16.3072921 ], [ -46.9078546, -16.3072081 ], [ -46.9078653, -16.3082458 ], [ -46.9066796, -16.311045 ], [ -46.9060195, -16.3106783 ], [ -46.9069728, -16.3074923 ], [ -46.9026106, -16.3057629 ], [ -46.9024587, -16.3031023 ], [ -46.903315, -16.3030509 ], [ -46.903039, -16.2994279 ], [ -46.9021864, -16.2994935 ], [ -46.9020991, -16.298581 ], [ -46.902964, -16.2985125 ], [ -46.9028303, -16.2967317 ] ] ] } },
{ "type": "Feature", "properties": { }, "geometry": { "type": "Polygon", "coordinates": [ [ [ -46.8979332, -16.2894529 ], [ -46.8951631, -16.2920603 ], [ -46.8924197, -16.2894273 ], [ -46.8955869, -16.286961 ], [ -46.8960451, -16.2874149 ], [ -46.8963105, -16.2871237 ], [ -46.8968546, -16.2876203 ], [ -46.8966744, -16.2881385 ], [ -46.8979332, -16.2894529 ] ] ] } },
{ "type": "Feature", "properties": { }, "geometry": { "type": "Polygon", "coordinates": [ [ [ -46.904077, -16.3165112 ], [ -46.902844, -16.3195425 ], [ -46.8982542, -16.314576 ], [ -46.8964731, -16.3176073 ], [ -46.8931678, -16.3160317 ], [ -46.8932877, -16.3155864 ], [ -46.8940241, -16.3142506 ], [ -46.895103, -16.3132915 ], [ -46.8965073, -16.3127264 ], [ -46.8959593, -16.3120242 ], [ -46.8973465, -16.3109624 ], [ -46.8990934, -16.3128291 ], [ -46.8999325, -16.3119728 ], [ -46.904077, -16.3165112 ] ] ] } },
{ "type": "Feature", "properties": { }, "geometry": { "type": "Polygon", "coordinates": [ [ [ -46.9043874, -16.3360959 ], [ -46.90424, -16.3372557 ], [ -46.9037773, -16.337239 ], [ -46.9035311, -16.3381809 ], [ -46.9020385, -16.3380173 ], [ -46.9020947, -16.3370956 ], [ -46.9018592, -16.3370613 ], [ -46.9007846, -16.3325658 ], [ -46.9010586, -16.3325187 ], [ -46.9011057, -16.332767 ], [ -46.9024629, -16.3327627 ], [ -46.9024415, -16.333923 ], [ -46.902647, -16.3339187 ], [ -46.9025956, -16.335049 ], [ -46.9053272, -16.3352717 ], [ -46.9052202, -16.3357833 ], [ -46.9043874, -16.3360959 ] ] ] } },
{ "type": "Feature", "properties": { }, "geometry": { "type": "Polygon", "coordinates": [ [ [ -46.9020251, -16.3382357 ], [ -46.9015992, -16.3382255 ], [ -46.9003821, -16.3341981 ], [ -46.8995943, -16.3295398 ], [ -46.8998084, -16.3273091 ], [ -46.9017265, -16.3225653 ], [ -46.9034605, -16.3231775 ], [ -46.9022745, -16.3261703 ], [ -46.9114626, -16.3273926 ], [ -46.9116039, -16.3262859 ], [ -46.9143732, -16.3265973 ], [ -46.9150205, -16.3277673 ], [ -46.9148835, -16.328949 ], [ -46.9048905, -16.328174 ], [ -46.9059352, -16.3292273 ], [ -46.9059523, -16.3301606 ], [ -46.9045651, -16.3314965 ], [ -46.9050104, -16.3319503 ], [ -46.9041541, -16.3329779 ], [ -46.9037492, -16.3332708 ], [ -46.9037645, -16.3336575 ], [ -46.9048434, -16.3339894 ], [ -46.9063163, -16.335368 ], [ -46.9025956, -16.335049 ], [ -46.902647, -16.3339187 ], [ -46.9024415, -16.333923 ], [ -46.9024629, -16.3327627 ], [ -46.9011057, -16.332767 ], [ -46.9010586, -16.3325187 ], [ -46.9007846, -16.3325658 ], [ -46.9018592, -16.3370613 ], [ -46.9020947, -16.3370956 ], [ -46.9020251, -16.3382357 ] ] ] } },
{ "type": "Feature", "properties": { }, "geometry": { "type": "Polygon", "coordinates": [ [ [ -46.8996534, -16.3289239 ], [ -46.8995943, -16.3295398 ], [ -46.8999464, -16.3316216 ], [ -46.8961712, -16.3310951 ], [ -46.8961712, -16.329999 ], [ -46.8947669, -16.329999 ], [ -46.8948012, -16.3284577 ], [ -46.8961027, -16.3285947 ], [ -46.896137, -16.3273445 ], [ -46.8975071, -16.3278583 ], [ -46.8976441, -16.3290228 ], [ -46.8996534, -16.3289239 ] ] ] } },
{ "type": "Feature", "properties": { }, "geometry": { "type": "Polygon", "coordinates": [ [ [ -46.9205481, -16.3514263 ], [ -46.9172548, -16.3500177 ], [ -46.9186445, -16.3486955 ], [ -46.9214428, -16.3506404 ], [ -46.92473, -16.3463371 ], [ -46.9266928, -16.3475464 ], [ -46.9270387, -16.3471146 ], [ -46.928614, -16.3481636 ], [ -46.9288701, -16.3477648 ], [ -46.9297877, -16.3483651 ], [ -46.9274085, -16.3515729 ], [ -46.9205481, -16.3514263 ] ] ] } },
{ "type": "Feature", "properties": { }, "geometry": { "type": "Polygon", "coordinates": [ [ [ -46.9297877, -16.3483651 ], [ -46.9310419, -16.3491334 ], [ -46.9280705, -16.3533977 ], [ -46.9286699, -16.3537146 ], [ -46.9281476, -16.3545966 ], [ -46.9273983, -16.354147 ], [ -46.9240245, -16.3590279 ], [ -46.9229791, -16.3584523 ], [ -46.9274085, -16.3515729 ], [ -46.9297877, -16.3483651 ] ] ] } },
{ "type": "Feature", "properties": { }, "geometry": { "type": "Polygon", "coordinates": [ [ [ -46.900213, -16.3391703 ], [ -46.9009194, -16.3398982 ], [ -46.9011662, -16.339764 ], [ -46.9027005, -16.3420346 ], [ -46.9025378, -16.3421631 ], [ -46.9039079, -16.3440041 ], [ -46.90324, -16.3444665 ], [ -46.9019042, -16.3425655 ], [ -46.9016216, -16.3425056 ], [ -46.9001582, -16.3404923 ], [ -46.899361, -16.3397911 ], [ -46.900213, -16.3391703 ] ] ] } },
{ "type": "Feature", "properties": { }, "geometry": { "type": "Polygon", "coordinates": [ [ [ -46.9253655, -16.3423408 ], [ -46.9266951, -16.3433297 ], [ -46.9277372, -16.3446686 ], [ -46.9268503, -16.3466287 ], [ -46.9272356, -16.3467743 ], [ -46.9266928, -16.3475464 ], [ -46.92473, -16.3463371 ], [ -46.9250827, -16.345444 ], [ -46.9231985, -16.3447882 ], [ -46.9229936, -16.3445689 ], [ -46.9253655, -16.3423408 ] ] ] } },
{ "type": "Feature", "properties": { }, "geometry": { "type": "Polygon", "coordinates": [ [ [ -46.9274085, -16.3515729 ], [ -46.9263537, -16.3531794 ], [ -46.9248294, -16.3530252 ], [ -46.9230526, -16.3526271 ], [ -46.9205481, -16.3514263 ], [ -46.9212223, -16.3513798 ], [ -46.9274085, -16.3515729 ] ] ] } },
{ "type": "Feature", "properties": { }, "geometry": { "type": "Polygon", "coordinates": [ [ [ -46.9233631, -16.3442191 ], [ -46.922771, -16.3447797 ], [ -46.9185035, -16.3435396 ], [ -46.9183002, -16.3442953 ], [ -46.9164527, -16.3437151 ], [ -46.916791, -16.3424234 ], [ -46.9233631, -16.3442191 ] ] ] } },
{ "type": "Feature", "properties": { }, "geometry": { "type": "Polygon", "coordinates": [ [ [ -46.9178954, -16.3397326 ], [ -46.9183119, -16.3389579 ], [ -46.9185656, -16.3380871 ], [ -46.9249772, -16.3390162 ], [ -46.9246346, -16.3406603 ], [ -46.9230248, -16.340489 ], [ -46.9227081, -16.3419335 ], [ -46.9203645, -16.3416774 ], [ -46.9206443, -16.3401294 ], [ -46.9178954, -16.3397326 ] ] ] } },
{ "type": "Feature", "properties": { }, "geometry": { "type": "Polygon", "coordinates": [ [ [ -46.9216615, -16.3385357 ], [ -46.921751, -16.3372308 ], [ -46.9286014, -16.3390804 ], [ -46.9278136, -16.3403135 ], [ -46.9292522, -16.3406903 ], [ -46.9305538, -16.3420261 ], [ -46.9289097, -16.3437044 ], [ -46.9275228, -16.3423543 ], [ -46.9280201, -16.3417681 ], [ -46.9271394, -16.3407361 ], [ -46.9266531, -16.341131 ], [ -46.9262359, -16.3408401 ], [ -46.9246346, -16.3406603 ], [ -46.9249772, -16.3390162 ], [ -46.9216615, -16.3385357 ] ] ] } },
{ "type": "Feature", "properties": { }, "geometry": { "type": "Polygon", "coordinates": [ [ [ -46.8931357, -16.3408187 ], [ -46.8922836, -16.3415294 ], [ -46.8900836, -16.3389186 ], [ -46.8918491, -16.3373336 ], [ -46.892806, -16.3384596 ], [ -46.8942423, -16.33841 ], [ -46.8936323, -16.3402535 ], [ -46.8932812, -16.3401593 ], [ -46.8931357, -16.3408187 ] ] ] } },
{ "type": "Feature", "properties": { }, "geometry": { "type": "Polygon", "coordinates": [ [ [ -46.9077356, -16.3479602 ], [ -46.9086053, -16.3501111 ], [ -46.9089237, -16.3500068 ], [ -46.9096944, -16.3521304 ], [ -46.9080481, -16.3528454 ], [ -46.9071255, -16.3505206 ], [ -46.9057661, -16.35106 ], [ -46.9054418, -16.3506596 ], [ -46.905563, -16.3481554 ], [ -46.9061, -16.3479731 ], [ -46.9077356, -16.3479602 ] ] ] } },
{ "type": "Feature", "properties": { }, "geometry": { "type": "Polygon", "coordinates": [ [ [ -46.9061, -16.3479731 ], [ -46.9054683, -16.3464617 ], [ -46.9039907, -16.3460206 ], [ -46.9035961, -16.3452208 ], [ -46.903001, -16.3454351 ], [ -46.9027125, -16.3452576 ], [ -46.9019153, -16.3442094 ], [ -46.9011676, -16.3445116 ], [ -46.8962098, -16.3431906 ], [ -46.895362, -16.3420946 ], [ -46.8949596, -16.3411783 ], [ -46.8949861, -16.3383844 ], [ -46.9003939, -16.3382393 ], [ -46.900213, -16.3391703 ], [ -46.899361, -16.3397911 ], [ -46.9001582, -16.3404923 ], [ -46.9016216, -16.3425056 ], [ -46.9019042, -16.3425655 ], [ -46.90324, -16.3444665 ], [ -46.9039079, -16.3440041 ], [ -46.9025378, -16.3421631 ], [ -46.9027005, -16.3420346 ], [ -46.9011662, -16.339764 ], [ -46.9019878, -16.3393175 ], [ -46.9015992, -16.3382255 ], [ -46.9020251, -16.3382357 ], [ -46.9020385, -16.3380173 ], [ -46.9085812, -16.3389605 ], [ -46.9081359, -16.3431393 ], [ -46.9093005, -16.3426597 ], [ -46.9098827, -16.3442353 ], [ -46.9081016, -16.3466672 ], [ -46.9077356, -16.3479602 ], [ -46.9061, -16.3479731 ] ] ] } },
{ "type": "Feature", "properties": { }, "geometry": { "type": "Polygon", "coordinates": [ [ [ -46.9065081, -16.3602565 ], [ -46.907507, -16.3610236 ], [ -46.9057431, -16.3630445 ], [ -46.9047797, -16.3626778 ], [ -46.9058843, -16.3609628 ], [ -46.9065081, -16.3602565 ] ] ] } },
{ "type": "Feature", "properties": { }, "geometry": { "type": "Polygon", "coordinates": [ [ [ -46.9129226, -16.3501053 ], [ -46.9123553, -16.3490734 ], [ -46.912007, -16.3490851 ], [ -46.9118065, -16.3480704 ], [ -46.9113877, -16.3481336 ], [ -46.9112951, -16.3476796 ], [ -46.9120278, -16.3475 ], [ -46.91191, -16.3468321 ], [ -46.9123767, -16.3468042 ], [ -46.9130896, -16.3494673 ], [ -46.9135734, -16.3492276 ], [ -46.9138217, -16.3496857 ], [ -46.9129226, -16.3501053 ] ] ] } },
{ "type": "Feature", "properties": { }, "geometry": { "type": "Polygon", "coordinates": [ [ [ -46.8848895, -16.3836337 ], [ -46.8846112, -16.3840575 ], [ -46.8866877, -16.3853163 ], [ -46.8865996, -16.3860026 ], [ -46.8868676, -16.3861597 ], [ -46.886198, -16.3865306 ], [ -46.8857506, -16.386278 ], [ -46.8854616, -16.386708 ], [ -46.8826903, -16.3850926 ], [ -46.8829564, -16.3846398 ], [ -46.8819531, -16.3839978 ], [ -46.8823805, -16.3833789 ], [ -46.8823634, -16.3829957 ], [ -46.8826374, -16.3823235 ], [ -46.8848895, -16.3836337 ] ] ] } },
{ "type": "Feature", "properties": { }, "geometry": { "type": "Polygon", "coordinates": [ [ [ -46.8823947, -16.3507183 ], [ -46.8816043, -16.3505497 ], [ -46.8813082, -16.3500641 ], [ -46.8813423, -16.3496998 ], [ -46.8817817, -16.3494994 ], [ -46.882307, -16.3495051 ], [ -46.8823156, -16.3489097 ], [ -46.8825532, -16.3482885 ], [ -46.8829883, -16.3483916 ], [ -46.882954, -16.3489383 ], [ -46.8839301, -16.3489641 ], [ -46.8838845, -16.3495257 ], [ -46.8827458, -16.3495086 ], [ -46.8823947, -16.3507183 ] ] ] } },
{ "type": "Feature", "properties": { }, "geometry": { "type": "Polygon", "coordinates": [ [ [ -46.8754473, -16.3621288 ], [ -46.8754472, -16.3652923 ], [ -46.8729168, -16.3652837 ], [ -46.8728826, -16.3621454 ], [ -46.8754473, -16.3621288 ] ] ] } },
{ "type": "Feature", "properties": { }, "geometry": { "type": "Polygon", "coordinates": [ [ [ -46.8768044, -16.3505768 ], [ -46.875293, -16.3523358 ], [ -46.8729896, -16.3588657 ], [ -46.8729211, -16.3600817 ], [ -46.8595595, -16.3519866 ], [ -46.86098, -16.3484317 ], [ -46.8621565, -16.348907 ], [ -46.8622944, -16.3486244 ], [ -46.863215, -16.3490483 ], [ -46.8633237, -16.3488625 ], [ -46.864943, -16.3496072 ], [ -46.8656111, -16.3485472 ], [ -46.8676592, -16.3494464 ], [ -46.8664314, -16.3517601 ], [ -46.8693375, -16.3530215 ], [ -46.8718422, -16.3519426 ], [ -46.8714874, -16.3510164 ], [ -46.8738245, -16.3502 ], [ -46.8768044, -16.3505768 ] ] ] } },
{ "type": "Feature", "properties": { }, "geometry": { "type": "Polygon", "coordinates": [ [ [ -46.8995119, -16.3739907 ], [ -46.8985399, -16.3729827 ], [ -46.8960395, -16.3747467 ], [ -46.8966153, -16.3754596 ], [ -46.895365, -16.3766321 ], [ -46.8955963, -16.376941 ], [ -46.8942691, -16.3780199 ], [ -46.8951613, -16.3785009 ], [ -46.8946225, -16.3788185 ], [ -46.894379, -16.3791617 ], [ -46.8938487, -16.3786659 ], [ -46.8934042, -16.3790582 ], [ -46.8938737, -16.379634 ], [ -46.8936321, -16.3799397 ], [ -46.8930424, -16.3792156 ], [ -46.892306, -16.3800643 ], [ -46.8925115, -16.3802698 ], [ -46.892154, -16.3804925 ], [ -46.8928776, -16.381306 ], [ -46.8923852, -16.381604 ], [ -46.8915481, -16.3811123 ], [ -46.8912403, -16.3813262 ], [ -46.8897906, -16.380364 ], [ -46.8900264, -16.3800778 ], [ -46.8890066, -16.379543 ], [ -46.8871355, -16.3810915 ], [ -46.8869174, -16.3807996 ], [ -46.885018, -16.3823749 ], [ -46.8827648, -16.3814824 ], [ -46.8833632, -16.3809577 ], [ -46.8831037, -16.3806464 ], [ -46.8834723, -16.3802641 ], [ -46.8832839, -16.3787399 ], [ -46.8839005, -16.3788769 ], [ -46.8841378, -16.3784914 ], [ -46.8838445, -16.3781768 ], [ -46.8848321, -16.3773281 ], [ -46.8831706, -16.3762191 ], [ -46.8829885, -16.3759355 ], [ -46.884684, -16.3724076 ], [ -46.8848017, -16.3715898 ], [ -46.8838619, -16.3728357 ], [ -46.8831951, -16.373292 ], [ -46.8816472, -16.3723301 ], [ -46.882047, -16.3720948 ], [ -46.882025, -16.3658854 ], [ -46.8824298, -16.3657413 ], [ -46.8820701, -16.3648978 ], [ -46.8814964, -16.3650134 ], [ -46.8807425, -16.3570984 ], [ -46.8798159, -16.3499982 ], [ -46.8806894, -16.3499897 ], [ -46.8822821, -16.3535176 ], [ -46.8828637, -16.3523138 ], [ -46.8834266, -16.3526059 ], [ -46.8839026, -16.3517665 ], [ -46.8822371, -16.3510258 ], [ -46.8827458, -16.3495086 ], [ -46.8842756, -16.3495316 ], [ -46.8861804, -16.3491805 ], [ -46.8947926, -16.3513881 ], [ -46.8951143, -16.350302 ], [ -46.9008124, -16.3520051 ], [ -46.9005845, -16.3525898 ], [ -46.9015827, -16.3529134 ], [ -46.9022017, -16.351638 ], [ -46.902617, -16.3518521 ], [ -46.902373, -16.352353 ], [ -46.9052695, -16.353739 ], [ -46.9056334, -16.3524387 ], [ -46.9062734, -16.3533549 ], [ -46.9075872, -16.3539638 ], [ -46.9101032, -16.3540057 ], [ -46.9114391, -16.3518307 ], [ -46.9113363, -16.3491077 ], [ -46.9123553, -16.3490734 ], [ -46.9129226, -16.3501053 ], [ -46.9132515, -16.349997 ], [ -46.9137125, -16.3512741 ], [ -46.9140722, -16.3516166 ], [ -46.9139694, -16.3521989 ], [ -46.91337, -16.3520277 ], [ -46.9119314, -16.3543311 ], [ -46.9122875, -16.3547401 ], [ -46.9066737, -16.3600715 ], [ -46.9058843, -16.3609628 ], [ -46.9046764, -16.3628655 ], [ -46.9040548, -16.3644755 ], [ -46.9019109, -16.3739167 ], [ -46.8998843, -16.3734113 ], [ -46.8995119, -16.3739907 ] ] ] } },
{ "type": "Feature", "properties": { }, "geometry": { "type": "Polygon", "coordinates": [ [ [ -46.9123219, -16.3836483 ], [ -46.9142462, -16.3861569 ], [ -46.914135, -16.3886478 ], [ -46.9114707, -16.38849 ], [ -46.9115896, -16.3868563 ], [ -46.9107676, -16.3863139 ], [ -46.9109753, -16.3859763 ], [ -46.9106637, -16.3857296 ], [ -46.9109493, -16.3852752 ], [ -46.9099554, -16.3846548 ], [ -46.911137, -16.3829668 ], [ -46.9121888, -16.3840389 ], [ -46.9123219, -16.3836483 ] ] ] } },
{ "type": "Feature", "properties": { }, "geometry": { "type": "Polygon", "coordinates": [ [ [ -46.9080448, -16.3908601 ], [ -46.9076124, -16.3903506 ], [ -46.9073204, -16.3906241 ], [ -46.9061057, -16.3897493 ], [ -46.9040031, -16.3868719 ], [ -46.9042394, -16.3861928 ], [ -46.9055887, -16.3865596 ], [ -46.9062305, -16.384811 ], [ -46.9029699, -16.3836675 ], [ -46.9034933, -16.3817651 ], [ -46.9037301, -16.381517 ], [ -46.9040161, -16.3815411 ], [ -46.9042565, -16.3814241 ], [ -46.9050072, -16.3817681 ], [ -46.9065331, -16.3827362 ], [ -46.9065194, -16.3839362 ], [ -46.9076201, -16.3846345 ], [ -46.9081246, -16.3839376 ], [ -46.9080108, -16.3838569 ], [ -46.9084073, -16.3832639 ], [ -46.9088181, -16.3833997 ], [ -46.9092402, -16.3818113 ], [ -46.9063365, -16.3794071 ], [ -46.9064465, -16.3786262 ], [ -46.9053753, -16.3779921 ], [ -46.9036943, -16.3765922 ], [ -46.9026335, -16.3734889 ], [ -46.9039092, -16.373135 ], [ -46.9037269, -16.3725903 ], [ -46.9056683, -16.3719614 ], [ -46.9091323, -16.3721971 ], [ -46.9136898, -16.3731732 ], [ -46.9136496, -16.3733944 ], [ -46.9142305, -16.3734898 ], [ -46.9139961, -16.3746803 ], [ -46.9142187, -16.3747274 ], [ -46.9141131, -16.3752076 ], [ -46.9138505, -16.3751898 ], [ -46.9133838, -16.3773092 ], [ -46.9143472, -16.3774612 ], [ -46.9142701, -16.3778208 ], [ -46.9129992, -16.3775534 ], [ -46.9127169, -16.3788486 ], [ -46.9141845, -16.3791845 ], [ -46.9140175, -16.3800921 ], [ -46.9130456, -16.379908 ], [ -46.9127064, -16.3803373 ], [ -46.9123958, -16.3802717 ], [ -46.9125661, -16.3820252 ], [ -46.9121888, -16.3840389 ], [ -46.911137, -16.3829668 ], [ -46.9072313, -16.3886616 ], [ -46.9085396, -16.3902801 ], [ -46.9081497, -16.3906075 ], [ -46.9080448, -16.3908601 ] ] ] } },
{ "type": "Feature", "properties": { }, "geometry": { "type": "Polygon", "coordinates": [ [ [ -46.9042394, -16.3861928 ], [ -46.9048637, -16.3843997 ], [ -46.9062305, -16.384811 ], [ -46.9055887, -16.3865596 ], [ -46.9042394, -16.3861928 ] ] ] } },
{ "type": "Feature", "properties": { }, "geometry": { "type": "Polygon", "coordinates": [ [ [ -46.9035481, -16.3667025 ], [ -46.9049493, -16.3668473 ], [ -46.9044526, -16.3696132 ], [ -46.9036477, -16.3695447 ], [ -46.9032795, -16.3712744 ], [ -46.9047994, -16.3708548 ], [ -46.9056683, -16.3719614 ], [ -46.9037269, -16.3725903 ], [ -46.9039092, -16.373135 ], [ -46.9026335, -16.3734889 ], [ -46.9036943, -16.3765922 ], [ -46.9053753, -16.3779921 ], [ -46.9064465, -16.3786262 ], [ -46.906171, -16.3802171 ], [ -46.9048508, -16.3799102 ], [ -46.903744, -16.3768553 ], [ -46.9026993, -16.3776517 ], [ -46.9019482, -16.3772339 ], [ -46.9016204, -16.3783838 ], [ -46.9021428, -16.3800964 ], [ -46.9017831, -16.3823913 ], [ -46.8999164, -16.3822714 ], [ -46.9000876, -16.3809185 ], [ -46.8982552, -16.380576 ], [ -46.8992998, -16.3765342 ], [ -46.9011449, -16.3768296 ], [ -46.9013646, -16.376116 ], [ -46.8995119, -16.3739907 ], [ -46.8998843, -16.3734113 ], [ -46.9019109, -16.3739167 ], [ -46.9035481, -16.3667025 ] ] ] } },
{ "type": "Feature", "properties": { }, "geometry": { "type": "Polygon", "coordinates": [ [ [ -46.8986191, -16.3880386 ], [ -46.8959346, -16.387315 ], [ -46.8968251, -16.3853969 ], [ -46.8965169, -16.3837528 ], [ -46.8976129, -16.3834274 ], [ -46.8994497, -16.3841168 ], [ -46.8986191, -16.3880386 ] ] ] } },
{ "type": "Feature", "properties": { }, "geometry": { "type": "Polygon", "coordinates": [ [ [ -46.8990575, -16.3859685 ], [ -46.9014277, -16.3904705 ], [ -46.9008112, -16.3910357 ], [ -46.9035514, -16.3943238 ], [ -46.9028602, -16.396992 ], [ -46.8976499, -16.3928436 ], [ -46.8979854, -16.3908387 ], [ -46.8954679, -16.3902307 ], [ -46.8959988, -16.3880771 ], [ -46.8965096, -16.3882154 ], [ -46.8963627, -16.3888821 ], [ -46.8983322, -16.389246 ], [ -46.8990575, -16.3859685 ] ] ] } },
{ "type": "Feature", "properties": { }, "geometry": { "type": "Polygon", "coordinates": [ [ [ -46.9085396, -16.3902801 ], [ -46.9088925, -16.3907167 ], [ -46.9062638, -16.398139 ], [ -46.9048972, -16.397691 ], [ -46.9044805, -16.3968261 ], [ -46.9053203, -16.3910494 ], [ -46.9078528, -16.3914998 ], [ -46.9081497, -16.3906075 ], [ -46.9085396, -16.3902801 ] ] ] } },
{ "type": "Feature", "properties": { }, "geometry": { "type": "Polygon", "coordinates": [ [ [ -46.9031211, -16.4040935 ], [ -46.904671, -16.4001117 ], [ -46.9063687, -16.4005574 ], [ -46.907501, -16.4024194 ], [ -46.9070044, -16.4047486 ], [ -46.9077751, -16.4053309 ], [ -46.908717, -16.4048513 ], [ -46.9102337, -16.4077023 ], [ -46.9043424, -16.4185184 ], [ -46.9025548, -16.4215057 ], [ -46.9011208, -16.4225022 ], [ -46.8958575, -16.4195283 ], [ -46.8961358, -16.4158805 ], [ -46.8857175, -16.4144323 ], [ -46.8864361, -16.4093041 ], [ -46.8952046, -16.4105029 ], [ -46.895348, -16.4079597 ], [ -46.8966952, -16.4079198 ], [ -46.8968465, -16.4055471 ], [ -46.8990793, -16.405652 ], [ -46.8990415, -16.406484 ], [ -46.9030868, -16.4067823 ], [ -46.9042129, -16.4042348 ], [ -46.9031211, -16.4040935 ] ] ] } },
{ "type": "Feature", "properties": { }, "geometry": { "type": "Polygon", "coordinates": [ [ [ -46.9001476, -16.4347783 ], [ -46.9012436, -16.4358486 ], [ -46.8992007, -16.4363711 ], [ -46.898456, -16.4370537 ], [ -46.8979516, -16.436511 ], [ -46.9001476, -16.4347783 ] ] ] } },
{ "type": "Feature", "properties": { }, "geometry": { "type": "Polygon", "coordinates": [ [ [ -46.9026929, -16.4432556 ], [ -46.9026116, -16.443626 ], [ -46.9034743, -16.4439535 ], [ -46.9033309, -16.4443453 ], [ -46.9018859, -16.4437245 ], [ -46.9020015, -16.4433777 ], [ -46.9013443, -16.4431636 ], [ -46.9014884, -16.4427763 ], [ -46.9026929, -16.4432556 ] ] ] } },
{ "type": "Feature", "properties": { }, "geometry": { "type": "Polygon", "coordinates": [ [ [ -46.7225585, -16.5284362 ], [ -46.7224134, -16.5282005 ], [ -46.7225887, -16.5274932 ], [ -46.7227761, -16.5272333 ], [ -46.7228606, -16.5261168 ], [ -46.7258138, -16.5274875 ], [ -46.7236322, -16.5290804 ], [ -46.7237863, -16.5294058 ], [ -46.7229947, -16.52988 ], [ -46.7232469, -16.5301935 ], [ -46.7229241, -16.5304836 ], [ -46.722382, -16.5300137 ], [ -46.7220652, -16.5302107 ], [ -46.7218211, -16.5298467 ], [ -46.722549, -16.5290932 ], [ -46.7225585, -16.5284362 ] ] ] } },
{ "type": "Feature", "properties": { }, "geometry": { "type": "MultiPolygon", "coordinates": [ [ [ [ -46.573751, -16.6119059 ], [ -46.572659, -16.6109063 ], [ -46.5796938, -16.604713 ], [ -46.5806871, -16.6058433 ], [ -46.573751, -16.6119059 ] ] ], [ [ [ -46.5758918, -16.6206487 ], [ -46.5795097, -16.6241595 ], [ -46.5782852, -16.6251357 ], [ -46.5772405, -16.6240568 ], [ -46.5758918, -16.6252813 ], [ -46.5713781, -16.6204376 ], [ -46.5722482, -16.6180028 ], [ -46.5744618, -16.6199294 ], [ -46.5774759, -16.617018 ], [ -46.5738996, -16.6133744 ], [ -46.5751126, -16.6121885 ], [ -46.5760716, -16.6131133 ], [ -46.5811409, -16.6082838 ], [ -46.5823055, -16.6094483 ], [ -46.5767909, -16.6141066 ], [ -46.5787047, -16.6159305 ], [ -46.5844459, -16.6106231 ], [ -46.5856622, -16.6118117 ], [ -46.5758918, -16.6206487 ] ] ], [ [ [ -46.5860047, -16.6145519 ], [ -46.586724, -16.6155794 ], [ -46.5815862, -16.6197924 ], [ -46.582785, -16.6208885 ], [ -46.581963, -16.621916 ], [ -46.5790173, -16.6191759 ], [ -46.5801819, -16.6182168 ], [ -46.5806271, -16.6186964 ], [ -46.5860047, -16.6145519 ] ] ] ] } },
{ "type": "Feature", "properties": { }, "geometry": { "type": "Polygon", "coordinates": [ [ [ -46.9054683, -16.3464617 ], [ -46.9061, -16.3479731 ], [ -46.905563, -16.3481554 ], [ -46.9054418, -16.3506596 ], [ -46.9051389, -16.3508125 ], [ -46.9029578, -16.3488161 ], [ -46.9041811, -16.3483776 ], [ -46.904466, -16.3461625 ], [ -46.9054683, -16.3464617 ] ] ] } },
{ "type": "Feature", "properties": { }, "geometry": { "type": "Polygon", "coordinates": [ [ [ -46.8986676, -16.3207526 ], [ -46.9000154, -16.3214538 ], [ -46.8997363, -16.3221617 ], [ -46.901261, -16.32289 ], [ -46.9000834, -16.325783 ], [ -46.8986199, -16.3251431 ], [ -46.8988037, -16.3246735 ], [ -46.8973198, -16.3241085 ], [ -46.8986676, -16.3207526 ] ] ] } }
]
}
